{"visits":[{"sequence":1,"Latitude":50.06675,"Longitude":-5.71156,"entityId":1000001,"day":1,"placeName":"Land's End","type":1,"url":"lands-end"},
{"sequence":2,"Latitude":50.07067,"Longitude":-5.69666,"entityId":1000002,"day":1,"placeName":"Sennen","type":3,"url":""},
{"sequence":3,"Latitude":50.10626,"Longitude":-5.55002,"entityId":1000003,"day":1,"placeName":"Newlyn","type":3,"url":""},
{"sequence":4,"Latitude":50.12082,"Longitude":-5.54031,"entityId":1000004,"day":1,"placeName":"Penzance","type":3,"url":""},
{"sequence":5,"Latitude":50.124,"Longitude":-5.47298,"entityId":1000005,"day":1,"placeName":"Marazion","type":3,"url":""},
{"sequence":6,"Latitude":50.11547,"Longitude":-5.42036,"entityId":1000006,"day":1,"placeName":"Rosudgeon","type":3,"url":""},
{"sequence":7,"Latitude":50.1087,"Longitude":-5.35246,"entityId":1000007,"day":1,"placeName":"Ashton","type":3,"url":""},
{"sequence":8,"Latitude":50.10894,"Longitude":-5.33558,"entityId":1000008,"day":1,"placeName":"Breage","type":3,"url":""},
{"sequence":9,"Latitude":50.10163,"Longitude":-5.2698,"entityId":1000009,"day":1,"placeName":"Helston","type":3,"url":""},
{"sequence":10,"Latitude":50.15353,"Longitude":-5.07141,"entityId":1000010,"day":1,"placeName":"Falmouth","type":3,"url":""},
{"sequence":11,"Latitude":50.26155,"Longitude":-5.05248,"entityId":1000011,"day":1,"placeName":"Truro","type":3,"url":""},
{"sequence":12,"Latitude":50.41254,"Longitude":-5.07689,"entityId":1000012,"day":1,"placeName":"Newquay","type":3,"url":""},
{"sequence":13,"Latitude":50.3452,"Longitude":-4.8903,"entityId":1000013,"day":1,"placeName":"St Stephen","type":3,"url":""},
{"sequence":14,"Latitude":50.33885,"Longitude":-4.78253,"entityId":1000014,"day":1,"placeName":"St Austell","type":3,"url":""},
{"sequence":15,"Latitude":50.38208,"Longitude":-4.79398,"entityId":1000015,"day":1,"placeName":"Stenalees","type":3,"url":""},
{"sequence":16,"Latitude":50.3928,"Longitude":-4.79406,"entityId":1000016,"day":1,"placeName":"Bugle","type":3,"url":""},
{"sequence":17,"Latitude":50.44608,"Longitude":-4.76652,"entityId":1000017,"day":1,"placeName":"Lanivet","type":3,"url":""},
{"sequence":18,"Latitude":50.47302,"Longitude":-4.72638,"entityId":1000018,"day":1,"placeName":"Bodmin","type":3,"url":""},
{"sequence":19,"Latitude":50.45448,"Longitude":-4.46199,"entityId":1000019,"day":1,"placeName":"Liskeard","type":3,"url":""},
{"sequence":20,"Latitude":50.41415,"Longitude":-4.22093,"entityId":1000020,"day":1,"placeName":"Saltash","type":3,"url":""},
{"sequence":21,"Latitude":50.37128,"Longitude":-4.14246,"entityId":1000021,"day":1,"placeName":"Plymouth","type":1,"url":"plymouth","followUpVisitDay":2},
{"sequence":22,"Latitude":50.35264,"Longitude":-4.03353,"entityId":1000022,"day":2,"placeName":"Brixton","type":3,"url":""},
{"sequence":23,"Latitude":50.34773,"Longitude":-4.00218,"entityId":1000023,"day":2,"placeName":"Yealmpton","type":3,"url":""},
{"sequence":24,"Latitude":50.34958,"Longitude":-3.89024,"entityId":1000024,"day":2,"placeName":"Modbury","type":3,"url":""},
{"sequence":25,"Latitude":50.28586,"Longitude":-3.77801,"entityId":1000025,"day":2,"placeName":"Kingsbridge","type":3,"url":""},
{"sequence":26,"Latitude":50.26932,"Longitude":-3.74834,"entityId":1000026,"day":2,"placeName":"West Charleton","type":3,"url":""},
{"sequence":27,"Latitude":50.27124,"Longitude":-3.69358,"entityId":1000027,"day":2,"placeName":"Chillington","type":3,"url":""},
{"sequence":28,"Latitude":50.26568,"Longitude":-3.65392,"entityId":1000028,"day":2,"placeName":"Torcross","type":3,"url":""},
{"sequence":29,"Latitude":50.32529,"Longitude":-3.59703,"entityId":1000029,"day":2,"placeName":"Stoke Fleming","type":3,"url":""},
{"sequence":30,"Latitude":50.35206,"Longitude":-3.58328,"entityId":1000030,"day":2,"placeName":"Dartmouth","type":3,"url":""},
{"sequence":31,"Latitude":50.43223,"Longitude":-3.68548,"entityId":1000031,"day":2,"placeName":"Totnes","type":3,"url":""},
{"sequence":32,"Latitude":50.4377,"Longitude":-3.56327,"entityId":1000032,"day":2,"placeName":"Paignton","type":3,"url":""},
{"sequence":33,"Latitude":50.472,"Longitude":-3.52521,"entityId":1000033,"day":2,"placeName":"Torquay","type":3,"url":""},
{"sequence":34,"Latitude":50.54899,"Longitude":-3.49286,"entityId":1000034,"day":2,"placeName":"Teignmouth","type":3,"url":""},
{"sequence":35,"Latitude":50.72216,"Longitude":-3.52429,"entityId":1000035,"day":2,"placeName":"Exeter","type":1,"url":"exeter","followUpVisitDay":3},
{"sequence":36,"Latitude":50.73975,"Longitude":-4.00358,"entityId":1000036,"day":3,"placeName":"Okehampton","type":3,"url":""},
{"sequence":37,"Latitude":50.76063,"Longitude":-4.02263,"entityId":1000037,"day":3,"placeName":"Folly Gate","type":3,"url":""},
{"sequence":38,"Latitude":50.82102,"Longitude":-4.07015,"entityId":1000038,"day":3,"placeName":"Hatherleigh","type":3,"url":""},
{"sequence":39,"Latitude":50.89177,"Longitude":-4.09794,"entityId":1000039,"day":3,"placeName":"Merton","type":3,"url":""},
{"sequence":40,"Latitude":50.95448,"Longitude":-4.14591,"entityId":1000040,"day":3,"placeName":"Great Torrington","type":3,"url":""},
{"sequence":41,"Latitude":51.01747,"Longitude":-4.21236,"entityId":1000041,"day":3,"placeName":"Bideford","type":3,"url":""},
{"sequence":42,"Latitude":51.07487,"Longitude":-4.0712,"entityId":1000042,"day":3,"placeName":"Sticklepath","type":3,"url":""},
{"sequence":43,"Latitude":51.08041,"Longitude":-4.06005,"entityId":1000043,"day":3,"placeName":"Barnstaple","type":3,"url":""},
{"sequence":44,"Latitude":51.09893,"Longitude":-4.15172,"entityId":1000044,"day":3,"placeName":"Wrafton","type":3,"url":""},
{"sequence":45,"Latitude":51.10803,"Longitude":-4.16332,"entityId":1000045,"day":3,"placeName":"Braunton","type":3,"url":""},
{"sequence":46,"Latitude":51.12683,"Longitude":-4.15374,"entityId":1000046,"day":3,"placeName":"Knowle","type":3,"url":""},
{"sequence":47,"Latitude":51.20751,"Longitude":-4.12635,"entityId":1000047,"day":3,"placeName":"Ilfracombe","type":3,"url":""},
{"sequence":48,"Latitude":51.20276,"Longitude":-4.03083,"entityId":1000048,"day":3,"placeName":"Combe Martin","type":3,"url":""},
{"sequence":49,"Latitude":51.2298,"Longitude":-3.83916,"entityId":1000049,"day":3,"placeName":"Lynton","type":3,"url":""},
{"sequence":50,"Latitude":51.23014,"Longitude":-3.82827,"entityId":1000050,"day":3,"placeName":"Lynmouth","type":3,"url":""},
{"sequence":51,"Latitude":51.20801,"Longitude":-3.59541,"entityId":1000051,"day":3,"placeName":"Porlock","type":3,"url":""},
{"sequence":52,"Latitude":51.20703,"Longitude":-3.48069,"entityId":1000052,"day":3,"placeName":"Minehead","type":3,"url":""},
{"sequence":53,"Latitude":51.18232,"Longitude":-3.44343,"entityId":1000053,"day":3,"placeName":"Dunster","type":3,"url":""},
{"sequence":54,"Latitude":51.17311,"Longitude":-3.42311,"entityId":1000054,"day":3,"placeName":"Carhampton","type":3,"url":""},
{"sequence":55,"Latitude":51.16268,"Longitude":-3.36458,"entityId":1000055,"day":3,"placeName":"Washford","type":3,"url":""},
{"sequence":56,"Latitude":51.1631,"Longitude":-3.32269,"entityId":1000056,"day":3,"placeName":"Williton","type":3,"url":""},
{"sequence":57,"Latitude":51.01393,"Longitude":-3.10072,"entityId":1000057,"day":3,"placeName":"Taunton","type":1,"url":"taunton","followUpVisitDay":4},
{"sequence":58,"Latitude":50.92671,"Longitude":-2.90741,"entityId":1000058,"day":4,"placeName":"Ilminster","type":3,"url":""},
{"sequence":59,"Latitude":50.94624,"Longitude":-2.63356,"entityId":1000059,"day":4,"placeName":"Yeovil","type":3,"url":""},
{"sequence":60,"Latitude":51.00497,"Longitude":-2.67844,"entityId":1000060,"day":4,"placeName":"Ilchester","type":3,"url":""},
{"sequence":61,"Latitude":51.05362,"Longitude":-2.73385,"entityId":1000061,"day":4,"placeName":"Somerton","type":3,"url":""},
{"sequence":62,"Latitude":51.12466,"Longitude":-2.73916,"entityId":1000062,"day":4,"placeName":"Street","type":3,"url":""},
{"sequence":63,"Latitude":51.15033,"Longitude":-2.71285,"entityId":1000063,"day":4,"placeName":"Glastonbury","type":3,"url":""},
{"sequence":64,"Latitude":51.18829,"Longitude":-2.67171,"entityId":1000064,"day":4,"placeName":"Coxley","type":3,"url":""},
{"sequence":65,"Latitude":51.20768,"Longitude":-2.65225,"entityId":1000065,"day":4,"placeName":"Wells","type":3,"url":""},
{"sequence":66,"Latitude":51.19767,"Longitude":-2.58418,"entityId":1000066,"day":4,"placeName":"Croscombe","type":3,"url":""},
{"sequence":67,"Latitude":51.19019,"Longitude":-2.54921,"entityId":1000067,"day":4,"placeName":"Shepton Mallet","type":3,"url":""},
{"sequence":68,"Latitude":51.22896,"Longitude":-2.32255,"entityId":1000068,"day":4,"placeName":"Frome","type":3,"url":""},
{"sequence":69,"Latitude":51.29751,"Longitude":-2.23588,"entityId":1000069,"day":4,"placeName":"Southwick","type":3,"url":""},
{"sequence":70,"Latitude":51.31784,"Longitude":-2.20671,"entityId":1000070,"day":4,"placeName":"Trowbridge","type":3,"url":""},
{"sequence":71,"Latitude":51.3472,"Longitude":-2.25002,"entityId":1000071,"day":4,"placeName":"Bradford on Avon","type":3,"url":""},
{"sequence":72,"Latitude":51.38139,"Longitude":-2.3597,"entityId":1000072,"day":4,"placeName":"Bath","type":3,"url":""},
{"sequence":73,"Latitude":51.42362,"Longitude":-2.45677,"entityId":1000073,"day":4,"placeName":"Bitton","type":3,"url":""},
{"sequence":74,"Latitude":51.43997,"Longitude":-2.49991,"entityId":1000074,"day":4,"placeName":"Longwell Green","type":3,"url":""},
{"sequence":75,"Latitude":51.44999,"Longitude":-2.51433,"entityId":1000075,"day":4,"placeName":"Hanham","type":3,"url":""},
{"sequence":76,"Latitude":51.46788,"Longitude":-2.58274,"entityId":1000076,"day":4,"placeName":"Bristol","type":1,"url":"bristol","followUpVisitDay":5},
{"sequence":77,"Latitude":51.42169,"Longitude":-2.71104,"entityId":1000077,"day":5,"placeName":"Flax Bourton","type":3,"url":""},
{"sequence":78,"Latitude":51.416,"Longitude":-2.73283,"entityId":1000078,"day":5,"placeName":"Backwell Farleigh","type":3,"url":""},
{"sequence":79,"Latitude":51.4078,"Longitude":-2.74954,"entityId":1000079,"day":5,"placeName":"Backwell West Town","type":3,"url":""},
{"sequence":80,"Latitude":51.42682,"Longitude":-2.76565,"entityId":1000080,"day":5,"placeName":"Nailsea","type":3,"url":""},
{"sequence":81,"Latitude":51.43982,"Longitude":-2.68924,"entityId":1000081,"day":5,"placeName":"Failand","type":3,"url":""},
{"sequence":82,"Latitude":51.44973,"Longitude":-2.64177,"entityId":1000082,"day":5,"placeName":"Leigh Woods","type":3,"url":""},
{"sequence":83,"Latitude":51.44603,"Longitude":-2.59128,"entityId":1000083,"day":5,"placeName":"Bristol","type":3,"url":""},
{"sequence":84,"Latitude":51.46055,"Longitude":-2.11835,"entityId":1000084,"day":5,"placeName":"Chippenham","type":3,"url":""},
{"sequence":85,"Latitude":51.44331,"Longitude":-2.00789,"entityId":1000085,"day":5,"placeName":"Calne","type":3,"url":""},
{"sequence":86,"Latitude":51.42038,"Longitude":-1.73022,"entityId":1000086,"day":5,"placeName":"Malborough","type":3,"url":""},
{"sequence":87,"Latitude":51.51609,"Longitude":-1.73192,"entityId":1000087,"day":5,"placeName":"Chiseldon","type":3,"url":""},
{"sequence":88,"Latitude":51.52423,"Longitude":-1.79174,"entityId":1000088,"day":5,"placeName":"Wroughton","type":3,"url":""},
{"sequence":89,"Latitude":51.54517,"Longitude":-1.89697,"entityId":1000089,"day":5,"placeName":"Royal Wootton Bassett","type":3,"url":""},
{"sequence":90,"Latitude":51.56814,"Longitude":-1.76335,"entityId":1000090,"day":5,"placeName":"Swindon","type":3,"url":""},
{"sequence":91,"Latitude":51.71528,"Longitude":-1.96597,"entityId":1000091,"day":5,"placeName":"Cirencester","type":3,"url":""},
{"sequence":92,"Latitude":51.74671,"Longitude":-2.2229,"entityId":1000092,"day":5,"placeName":"Stroud","type":3,"url":""},
{"sequence":93,"Latitude":51.78487,"Longitude":-2.19592,"entityId":1000093,"day":5,"placeName":"Painswick","type":3,"url":""},
{"sequence":94,"Latitude":51.84723,"Longitude":-2.15448,"entityId":1000094,"day":5,"placeName":"Brockworth","type":3,"url":""},
{"sequence":95,"Latitude":51.8661,"Longitude":-2.11362,"entityId":1000095,"day":5,"placeName":"Shurdington","type":3,"url":""},
{"sequence":96,"Latitude":51.89999,"Longitude":-2.08436,"entityId":1000096,"day":5,"placeName":"Cheltenham","type":1,"url":"cheltenham"},
{"sequence":97,"Latitude":51.86388,"Longitude":-2.24384,"entityId":1000097,"day":6,"placeName":"Gloucester","type":3,"url":""},
{"sequence":98,"Latitude":51.89148,"Longitude":-2.27055,"entityId":1000098,"day":6,"placeName":"Maisemore","type":3,"url":""},
{"sequence":99,"Latitude":51.92582,"Longitude":-2.29996,"entityId":1000099,"day":6,"placeName":"Hartpury","type":3,"url":""},
{"sequence":100,"Latitude":51.96085,"Longitude":-2.30635,"entityId":1000100,"day":6,"placeName":"Corse and Staunton","type":3,"url":""},
{"sequence":101,"Latitude":52.03619,"Longitude":-2.42763,"entityId":1000101,"day":6,"placeName":"Ledbury","type":3,"url":""},
{"sequence":102,"Latitude":52.06942,"Longitude":-2.63721,"entityId":1000102,"day":6,"placeName":"Bartestree","type":3,"url":""},
{"sequence":103,"Latitude":52.06819,"Longitude":-2.66085,"entityId":1000103,"day":6,"placeName":"Lugwardine","type":3,"url":""},
{"sequence":104,"Latitude":52.05807,"Longitude":-2.71201,"entityId":1000104,"day":6,"placeName":"Hereford","type":3,"url":""},
{"sequence":105,"Latitude":52.22937,"Longitude":-2.73919,"entityId":1000105,"day":6,"placeName":"Leominster","type":3,"url":""},
{"sequence":106,"Latitude":52.36731,"Longitude":-2.71669,"entityId":1000106,"day":6,"placeName":"Ludlow","type":3,"url":""},
{"sequence":107,"Latitude":52.37456,"Longitude":-2.59707,"entityId":1000107,"day":6,"placeName":"Clee Hill","type":3,"url":""},
{"sequence":108,"Latitude":52.37777,"Longitude":-2.4801,"entityId":1000108,"day":6,"placeName":"Cleobury Mortimer","type":3,"url":""},
{"sequence":109,"Latitude":52.37685,"Longitude":-2.40541,"entityId":1000109,"day":6,"placeName":"Far Forest","type":3,"url":""},
{"sequence":110,"Latitude":52.35908,"Longitude":-2.37332,"entityId":1000110,"day":6,"placeName":"Callow Hill","type":3,"url":""},
{"sequence":111,"Latitude":52.3763,"Longitude":-2.31676,"entityId":1000111,"day":6,"placeName":"Bewdley","type":3,"url":""},
{"sequence":112,"Latitude":52.38822,"Longitude":-2.24546,"entityId":1000112,"day":6,"placeName":"Kidderminster","type":3,"url":""},
{"sequence":113,"Latitude":52.2781,"Longitude":-2.16407,"entityId":1000113,"day":6,"placeName":"Droitwich Spa","type":3,"url":""},
{"sequence":114,"Latitude":52.2313,"Longitude":-2.19621,"entityId":1000114,"day":6,"placeName":"Fernhill Heath","type":3,"url":""},
{"sequence":115,"Latitude":52.19183,"Longitude":-2.22161,"entityId":1000115,"day":6,"placeName":"Worcester","type":1,"url":"worcester","followUpVisitDay":7},
{"sequence":116,"Latitude":52.16249,"Longitude":-2.24599,"entityId":1000116,"day":7,"placeName":"Powick","type":3,"url":""},
{"sequence":117,"Latitude":52.11154,"Longitude":-2.32686,"entityId":1000117,"day":7,"placeName":"Malvern","type":3,"url":""},
{"sequence":118,"Latitude":52.07912,"Longitude":-2.3304,"entityId":1000118,"day":7,"placeName":"Malvern Wells","type":3,"url":""},
{"sequence":119,"Latitude":51.91494,"Longitude":-2.58224,"entityId":1000119,"day":7,"placeName":"Ross on Wye","type":3,"url":""},
{"sequence":120,"Latitude":51.80941,"Longitude":-2.71772,"entityId":1000120,"day":7,"placeName":"Monmouth","type":3,"url":""},
{"sequence":121,"Latitude":51.76409,"Longitude":-2.85157,"entityId":1000121,"day":7,"placeName":"Raglan","type":3,"url":""},
{"sequence":122,"Latitude":51.82254,"Longitude":-3.01843,"entityId":1000122,"day":7,"placeName":"Abergavenny","type":3,"url":""},
{"sequence":123,"Latitude":51.80005,"Longitude":-3.17235,"entityId":1000123,"day":7,"placeName":"Brynmawr","type":3,"url":""},
{"sequence":124,"Latitude":51.77601,"Longitude":-3.08284,"entityId":1000124,"day":7,"placeName":"Blaenavon","type":3,"url":""},
{"sequence":125,"Latitude":51.7269,"Longitude":-3.06254,"entityId":1000125,"day":7,"placeName":"Abersychan","type":3,"url":""},
{"sequence":126,"Latitude":51.70067,"Longitude":-3.03436,"entityId":1000126,"day":7,"placeName":"Pontypool","type":3,"url":""},
{"sequence":127,"Latitude":51.5897,"Longitude":-2.99386,"entityId":1000127,"day":7,"placeName":"Newport","type":3,"url":""},
{"sequence":128,"Latitude":51.48896,"Longitude":-3.17953,"entityId":1000128,"day":7,"placeName":"Cardiff","type":1,"url":"cardiff","followUpVisitDay":8},
{"sequence":129,"Latitude":51.43349,"Longitude":-3.2135,"entityId":1000129,"day":8,"placeName":"Dinas Powys","type":3,"url":""},
{"sequence":130,"Latitude":51.4086,"Longitude":-3.27383,"entityId":1000130,"day":8,"placeName":"Barry","type":3,"url":""},
{"sequence":131,"Latitude":51.57278,"Longitude":-3.22075,"entityId":1000131,"day":8,"placeName":"Caerphilly","type":3,"url":""},
{"sequence":132,"Latitude":51.59801,"Longitude":-3.33924,"entityId":1000132,"day":8,"placeName":"Pontypridd","type":3,"url":""},
{"sequence":133,"Latitude":51.74913,"Longitude":-3.37446,"entityId":1000133,"day":8,"placeName":"Merthyr Tydfil","type":3,"url":""},
{"sequence":134,"Latitude":51.67534,"Longitude":-3.52716,"entityId":1000134,"day":8,"placeName":"Treherbert","type":3,"url":""},
{"sequence":135,"Latitude":51.66654,"Longitude":-3.51241,"entityId":1000135,"day":8,"placeName":"Ynyswen","type":3,"url":""},
{"sequence":136,"Latitude":51.6593,"Longitude":-3.50813,"entityId":1000136,"day":8,"placeName":"Treorchy","type":3,"url":""},
{"sequence":137,"Latitude":51.62324,"Longitude":-3.54185,"entityId":1000137,"day":8,"placeName":"Nant-y-moel","type":3,"url":""},
{"sequence":138,"Latitude":51.60291,"Longitude":-3.54247,"entityId":1000138,"day":8,"placeName":"Ogmore Vale","type":3,"url":""},
{"sequence":139,"Latitude":51.54893,"Longitude":-3.56619,"entityId":1000139,"day":8,"placeName":"Bryncethin","type":3,"url":""},
{"sequence":140,"Latitude":51.5089,"Longitude":-3.57752,"entityId":1000140,"day":8,"placeName":"Bridgend","type":3,"url":""},
{"sequence":141,"Latitude":51.50469,"Longitude":-3.62171,"entityId":1000141,"day":8,"placeName":"Laleston","type":3,"url":""},
{"sequence":142,"Latitude":51.53378,"Longitude":-3.68412,"entityId":1000142,"day":8,"placeName":"Pyle","type":3,"url":""},
{"sequence":143,"Latitude":51.57615,"Longitude":-3.75829,"entityId":1000143,"day":8,"placeName":"Margam","type":3,"url":""},
{"sequence":144,"Latitude":51.58756,"Longitude":-3.76912,"entityId":1000144,"day":8,"placeName":"Taibach","type":3,"url":""},
{"sequence":145,"Latitude":51.59056,"Longitude":-3.7986,"entityId":1000145,"day":8,"placeName":"Port Talbot","type":3,"url":""},
{"sequence":146,"Latitude":51.63555,"Longitude":-3.82547,"entityId":1000146,"day":8,"placeName":"Briton Ferry","type":3,"url":""},
{"sequence":147,"Latitude":51.66223,"Longitude":-3.8159,"entityId":1000147,"day":8,"placeName":"Neath","type":3,"url":""},
{"sequence":148,"Latitude":51.62704,"Longitude":-3.95357,"entityId":1000148,"day":8,"placeName":"Swansea","type":1,"url":"swansea","followUpVisitDay":9},
{"sequence":149,"Latitude":51.68152,"Longitude":-4.16298,"entityId":1000149,"day":9,"placeName":"Llanelli","type":3,"url":""},
{"sequence":150,"Latitude":51.68824,"Longitude":-4.25066,"entityId":1000150,"day":9,"placeName":"Burry Port","type":3,"url":""},
{"sequence":151,"Latitude":51.73542,"Longitude":-4.30872,"entityId":1000151,"day":9,"placeName":"Kidwelly","type":3,"url":""},
{"sequence":152,"Latitude":51.85982,"Longitude":-4.30737,"entityId":1000152,"day":9,"placeName":"Carmarthen","type":3,"url":""},
{"sequence":153,"Latitude":51.80151,"Longitude":-4.96727,"entityId":1000153,"day":9,"placeName":"Haverfordwest","type":3,"url":""},
{"sequence":154,"Latitude":51.99601,"Longitude":-4.9786,"entityId":1000154,"day":9,"placeName":"Fishguard","type":3,"url":""},
{"sequence":155,"Latitude":52.01835,"Longitude":-4.8346,"entityId":1000155,"day":9,"placeName":"Newport","type":3,"url":""},
{"sequence":156,"Latitude":52.08525,"Longitude":-4.65825,"entityId":1000156,"day":9,"placeName":"Cardigan/Aberteifi","type":3,"url":""},
{"sequence":157,"Latitude":52.12706,"Longitude":-4.46298,"entityId":1000157,"day":9,"placeName":"Sarnau","type":3,"url":""},
{"sequence":158,"Latitude":52.13665,"Longitude":-4.43428,"entityId":1000158,"day":9,"placeName":"Brynhoffnant","type":3,"url":""},
{"sequence":159,"Latitude":52.194,"Longitude":-4.3072,"entityId":1000159,"day":9,"placeName":"Llanarth","type":3,"url":""},
{"sequence":160,"Latitude":52.24107,"Longitude":-4.26206,"entityId":1000160,"day":9,"placeName":"Aberaeron","type":3,"url":""},
{"sequence":161,"Latitude":52.28338,"Longitude":-4.17736,"entityId":1000161,"day":9,"placeName":"Llanon","type":3,"url":""},
{"sequence":162,"Latitude":52.30403,"Longitude":-4.15008,"entityId":1000162,"day":9,"placeName":"Llanrhystud","type":3,"url":""},
{"sequence":163,"Latitude":52.40828,"Longitude":-4.07914,"entityId":1000163,"day":9,"placeName":"Aberystwyth","type":1,"url":"aberystwyth","followUpVisitDay":10},
{"sequence":164,"Latitude":52.44156,"Longitude":-4.02622,"entityId":1000164,"day":10,"placeName":"Bow Street","type":3,"url":""},
{"sequence":165,"Latitude":52.48549,"Longitude":-3.98317,"entityId":1000165,"day":10,"placeName":"Tal-y-bont","type":3,"url":""},
{"sequence":166,"Latitude":52.50477,"Longitude":-3.98305,"entityId":1000166,"day":10,"placeName":"Tre Taliesin","type":3,"url":""},
{"sequence":167,"Latitude":52.58918,"Longitude":-3.85285,"entityId":1000167,"day":10,"placeName":"Machynlleth","type":3,"url":""},
{"sequence":168,"Latitude":52.74239,"Longitude":-3.8839,"entityId":1000168,"day":10,"placeName":"Dolgellau","type":3,"url":""},
{"sequence":169,"Latitude":52.95752,"Longitude":-3.93035,"entityId":1000169,"day":10,"placeName":"Llan Ffestiniog","type":3,"url":""},
{"sequence":170,"Latitude":52.9921,"Longitude":-3.93296,"entityId":1000170,"day":10,"placeName":"Blaenau Ffestiniog","type":3,"url":""},
{"sequence":171,"Latitude":52.92505,"Longitude":-4.13335,"entityId":1000171,"day":10,"placeName":"Porthmadog","type":3,"url":""},
{"sequence":172,"Latitude":52.92183,"Longitude":-4.22926,"entityId":1000172,"day":10,"placeName":"Criccieth","type":3,"url":""},
{"sequence":173,"Latitude":52.89079,"Longitude":-4.41637,"entityId":1000173,"day":10,"placeName":"Pwllheli","type":3,"url":""},
{"sequence":174,"Latitude":53.11112,"Longitude":-4.26486,"entityId":1000174,"day":10,"placeName":"Bontnewydd","type":3,"url":""},
{"sequence":175,"Latitude":53.13918,"Longitude":-4.27133,"entityId":1000175,"day":10,"placeName":"Caernarfon","type":3,"url":""},
{"sequence":176,"Latitude":53.18499,"Longitude":-4.20863,"entityId":1000176,"day":10,"placeName":"Y Felinheli","type":3,"url":""},
{"sequence":177,"Latitude":53.22372,"Longitude":-4.13565,"entityId":1000177,"day":10,"placeName":"Bangor","type":1,"url":"bangor"},
{"sequence":178,"Latitude":53.26505,"Longitude":-4.09265,"entityId":1000178,"day":11,"placeName":"Beaumaris","type":3,"url":""},
{"sequence":179,"Latitude":53.22788,"Longitude":-4.16467,"entityId":1000179,"day":11,"placeName":"Menai Bridge","type":3,"url":""},
{"sequence":180,"Latitude":53.28082,"Longitude":-3.8336,"entityId":1000180,"day":11,"placeName":"Conwy","type":3,"url":""},
{"sequence":181,"Latitude":53.29743,"Longitude":-3.83393,"entityId":1000181,"day":11,"placeName":"Deganwy","type":3,"url":""},
{"sequence":182,"Latitude":53.31946,"Longitude":-3.82482,"entityId":1000182,"day":11,"placeName":"Llandudno","type":3,"url":""},
{"sequence":183,"Latitude":53.31736,"Longitude":-3.76531,"entityId":1000183,"day":11,"placeName":"Penrhyn Bay","type":3,"url":""},
{"sequence":184,"Latitude":53.31273,"Longitude":-3.74632,"entityId":1000184,"day":11,"placeName":"Rhos on Sea","type":3,"url":""},
{"sequence":185,"Latitude":53.29086,"Longitude":-3.70645,"entityId":1000185,"day":11,"placeName":"Colwyn Bay","type":3,"url":""},
{"sequence":186,"Latitude":53.29128,"Longitude":-3.70422,"entityId":1000186,"day":11,"placeName":"Old Colwyn","type":3,"url":""},
{"sequence":187,"Latitude":53.28398,"Longitude":-3.5825,"entityId":1000187,"day":11,"placeName":"Abergele","type":3,"url":""},
{"sequence":188,"Latitude":53.30147,"Longitude":-3.54113,"entityId":1000188,"day":11,"placeName":"Towyn","type":3,"url":""},
{"sequence":189,"Latitude":53.31182,"Longitude":-3.52082,"entityId":1000189,"day":11,"placeName":"Kinmel Bay","type":3,"url":""},
{"sequence":190,"Latitude":53.32108,"Longitude":-3.48571,"entityId":1000190,"day":11,"placeName":"Rhyl","type":3,"url":""},
{"sequence":191,"Latitude":53.29446,"Longitude":-3.46428,"entityId":1000191,"day":11,"placeName":"Rhuddlan","type":3,"url":""},
{"sequence":192,"Latitude":53.21888,"Longitude":-3.06173,"entityId":1000192,"day":11,"placeName":"Connah's Quay","type":3,"url":""},
{"sequence":193,"Latitude":53.20986,"Longitude":-3.03964,"entityId":1000193,"day":11,"placeName":"Shotton","type":3,"url":""},
{"sequence":194,"Latitude":53.2072,"Longitude":-3.02379,"entityId":1000194,"day":11,"placeName":"Queensferry","type":3,"url":""},
{"sequence":195,"Latitude":53.18564,"Longitude":-3.02439,"entityId":1000195,"day":11,"placeName":"Hawarden","type":3,"url":""},
{"sequence":196,"Latitude":53.17646,"Longitude":-2.9287,"entityId":1000196,"day":11,"placeName":"Saltney","type":3,"url":""},
{"sequence":197,"Latitude":53.19386,"Longitude":-2.88887,"entityId":1000197,"day":11,"placeName":"Chester","type":1,"url":"chester","followUpVisitDay":12},
{"sequence":198,"Latitude":53.04706,"Longitude":-2.99363,"entityId":1000198,"day":12,"placeName":"Wrexham","type":3,"url":""},
{"sequence":199,"Latitude":53.02939,"Longitude":-3.02285,"entityId":1000199,"day":12,"placeName":"Rhostyllen","type":3,"url":""},
{"sequence":200,"Latitude":52.98392,"Longitude":-3.08136,"entityId":1000200,"day":12,"placeName":"Acrefair","type":3,"url":""},
{"sequence":201,"Latitude":52.97385,"Longitude":-3.08803,"entityId":1000201,"day":12,"placeName":"Trevor","type":3,"url":""},
{"sequence":202,"Latitude":52.85936,"Longitude":-3.05141,"entityId":1000202,"day":12,"placeName":"Oswestry","type":3,"url":""},
{"sequence":203,"Latitude":52.79391,"Longitude":-3.07698,"entityId":1000203,"day":12,"placeName":"Pant","type":3,"url":""},
{"sequence":204,"Latitude":52.77884,"Longitude":-3.08969,"entityId":1000204,"day":12,"placeName":"Llanymynech","type":3,"url":""},
{"sequence":205,"Latitude":52.66093,"Longitude":-3.1473,"entityId":1000205,"day":12,"placeName":"Welshpool","type":3,"url":""},
{"sequence":206,"Latitude":52.70794,"Longitude":-2.75117,"entityId":1000206,"day":12,"placeName":"Shrewsbury","type":3,"url":""},
{"sequence":207,"Latitude":52.63611,"Longitude":-2.60316,"entityId":1000207,"day":12,"placeName":"Cressage","type":3,"url":""},
{"sequence":208,"Latitude":52.59379,"Longitude":-2.55665,"entityId":1000208,"day":12,"placeName":"Much Wenlock","type":3,"url":""},
{"sequence":209,"Latitude":52.61923,"Longitude":-2.49627,"entityId":1000209,"day":12,"placeName":"Benthall","type":3,"url":""},
{"sequence":210,"Latitude":52.61201,"Longitude":-2.4812,"entityId":1000210,"day":12,"placeName":"Broseley","type":3,"url":""},
{"sequence":211,"Latitude":52.62819,"Longitude":-2.48222,"entityId":1000211,"day":12,"placeName":"Ironbridge","type":3,"url":""},
{"sequence":212,"Latitude":52.68017,"Longitude":-2.45192,"entityId":1000212,"day":12,"placeName":"Telford","type":3,"url":""},
{"sequence":213,"Latitude":52.77068,"Longitude":-2.3789,"entityId":1000213,"day":12,"placeName":"Newport","type":3,"url":""},
{"sequence":214,"Latitude":52.78776,"Longitude":-2.24893,"entityId":1000214,"day":12,"placeName":"Gnosall","type":3,"url":""},
{"sequence":215,"Latitude":52.78177,"Longitude":-2.20281,"entityId":1000215,"day":12,"placeName":"Haughton","type":3,"url":""},
{"sequence":216,"Latitude":52.8081,"Longitude":-2.11499,"entityId":1000216,"day":12,"placeName":"Stafford","type":3,"url":""},
{"sequence":217,"Latitude":53.01566,"Longitude":-2.18779,"entityId":1000217,"day":12,"placeName":"Shelton","type":3,"url":""},
{"sequence":218,"Latitude":53.02068,"Longitude":-2.16348,"entityId":1000218,"day":12,"placeName":"Stoke on Trent","type":1,"url":"stoke-on-trent","followUpVisitDay":13},
{"sequence":219,"Latitude":53.03364,"Longitude":-2.18786,"entityId":1000219,"day":13,"placeName":"Cobridge","type":3,"url":""},
{"sequence":220,"Latitude":53.04363,"Longitude":-2.19036,"entityId":1000220,"day":13,"placeName":"Burslem","type":3,"url":""},
{"sequence":221,"Latitude":53.0426,"Longitude":-2.20282,"entityId":1000221,"day":13,"placeName":"Middleport","type":3,"url":""},
{"sequence":222,"Latitude":53.09962,"Longitude":-2.44146,"entityId":1000222,"day":13,"placeName":"Crewe","type":3,"url":""},
{"sequence":223,"Latitude":53.16642,"Longitude":-2.20306,"entityId":1000223,"day":13,"placeName":"Congleton","type":3,"url":""},
{"sequence":224,"Latitude":53.26066,"Longitude":-2.12552,"entityId":1000224,"day":13,"placeName":"Macclesfield","type":3,"url":""},
{"sequence":225,"Latitude":53.30538,"Longitude":-2.37058,"entityId":1000225,"day":13,"placeName":"Knutsford","type":3,"url":""},
{"sequence":226,"Latitude":53.33199,"Longitude":-2.72324,"entityId":1000226,"day":13,"placeName":"Runcorn","type":3,"url":""},
{"sequence":227,"Latitude":53.36595,"Longitude":-2.72765,"entityId":1000227,"day":13,"placeName":"Widnes","type":3,"url":""},
{"sequence":228,"Latitude":53.38995,"Longitude":-2.59432,"entityId":1000228,"day":13,"placeName":"Warrington","type":3,"url":""},
{"sequence":229,"Latitude":53.47386,"Longitude":-2.57231,"entityId":1000229,"day":13,"placeName":"Lowton","type":3,"url":""},
{"sequence":230,"Latitude":53.50866,"Longitude":-2.59419,"entityId":1000230,"day":13,"placeName":"Abram","type":3,"url":""},
{"sequence":231,"Latitude":53.54511,"Longitude":-2.62711,"entityId":1000231,"day":13,"placeName":"Wigan","type":3,"url":""},
{"sequence":232,"Latitude":53.54629,"Longitude":-2.62208,"entityId":1000232,"day":13,"placeName":"Scholes","type":3,"url":""},
{"sequence":233,"Latitude":53.54323,"Longitude":-2.60931,"entityId":1000233,"day":13,"placeName":"Ince","type":3,"url":""},
{"sequence":234,"Latitude":53.53467,"Longitude":-2.57255,"entityId":1000234,"day":13,"placeName":"Hindley","type":3,"url":""},
{"sequence":235,"Latitude":53.54762,"Longitude":-2.52237,"entityId":1000235,"day":13,"placeName":"Westhoughton","type":3,"url":""},
{"sequence":236,"Latitude":53.57769,"Longitude":-2.42889,"entityId":1000236,"day":13,"placeName":"Bolton","type":1,"url":"bolton","followUpVisitDay":14},
{"sequence":237,"Latitude":53.59767,"Longitude":-2.54701,"entityId":1000237,"day":14,"placeName":"Horwich","type":3,"url":""},
{"sequence":238,"Latitude":53.65277,"Longitude":-2.62942,"entityId":1000238,"day":14,"placeName":"Chorley","type":3,"url":""},
{"sequence":239,"Latitude":53.66338,"Longitude":-2.67555,"entityId":1000239,"day":14,"placeName":"Euxton","type":3,"url":""},
{"sequence":240,"Latitude":53.66642,"Longitude":-2.77764,"entityId":1000240,"day":14,"placeName":"Croston","type":3,"url":""},
{"sequence":241,"Latitude":53.59071,"Longitude":-2.85255,"entityId":1000241,"day":14,"placeName":"Burscough","type":3,"url":""},
{"sequence":242,"Latitude":53.56852,"Longitude":-2.88509,"entityId":1000242,"day":14,"placeName":"Ormskirk","type":3,"url":""},
{"sequence":243,"Latitude":53.6476,"Longitude":-3.00418,"entityId":1000243,"day":14,"placeName":"Southport","type":3,"url":""},
{"sequence":244,"Latitude":53.60289,"Longitude":-3.03903,"entityId":1000244,"day":14,"placeName":"Ainsdale","type":3,"url":""},
{"sequence":245,"Latitude":53.55784,"Longitude":-3.06572,"entityId":1000245,"day":14,"placeName":"Formby","type":3,"url":""},
{"sequence":246,"Latitude":53.48444,"Longitude":-3.02918,"entityId":1000246,"day":14,"placeName":"Crosby","type":3,"url":""},
{"sequence":247,"Latitude":53.45477,"Longitude":-2.74407,"entityId":1000247,"day":14,"placeName":"St Helen's","type":3,"url":""},
{"sequence":248,"Latitude":53.41234,"Longitude":-2.83745,"entityId":1000248,"day":14,"placeName":"Huyton","type":3,"url":""},
{"sequence":249,"Latitude":53.4162,"Longitude":-2.89646,"entityId":1000249,"day":14,"placeName":"Knotty Ash","type":3,"url":""},
{"sequence":250,"Latitude":53.41392,"Longitude":-2.90889,"entityId":1000250,"day":14,"placeName":"Old Swan","type":3,"url":""},
{"sequence":251,"Latitude":53.40248,"Longitude":-2.99397,"entityId":1000251,"day":14,"placeName":"Liverpool","type":3,"url":""},
{"sequence":252,"Latitude":53.39435,"Longitude":-3.01916,"entityId":1000252,"day":14,"placeName":"Birkenhead","type":3,"url":""},
{"sequence":253,"Latitude":53.41179,"Longitude":-2.97604,"entityId":1000253,"day":14,"placeName":"Liverpool","type":4,"url":"liverpool","followUpVisitDay":15},
{"sequence":254,"Latitude":54.0989,"Longitude":-4.6301,"entityId":1000254,"day":15,"placeName":"Ballasalla, Isle of Man","type":5,"url":""},
{"sequence":255,"Latitude":54.159,"Longitude":-4.488,"entityId":1000255,"day":15,"placeName":"Douglas, Isle of Man","type":3,"url":""},
{"sequence":256,"Latitude":54.2317,"Longitude":-4.4042,"entityId":1000256,"day":15,"placeName":"Laxey, Isle of Man","type":3,"url":""},
{"sequence":257,"Latitude":54.1703,"Longitude":-4.45589,"entityId":1000257,"day":15,"placeName":"Onchan, Isle of Man","type":3,"url":""},
{"sequence":258,"Latitude":54.0989,"Longitude":-4.6301,"entityId":1000258,"day":15,"placeName":"Ballasalla, Isle of Man","type":3,"url":""},
{"sequence":259,"Latitude":54.0742,"Longitude":-4.6566,"entityId":1000259,"day":15,"placeName":"Castletown, Isle of Man","type":5,"url":""},
{"sequence":260,"Latitude":54.60044,"Longitude":-5.90754,"entityId":1000260,"day":16,"placeName":"Belfast","type":5,"url":""},
{"sequence":261,"Latitude":54.64049,"Longitude":-5.83638,"entityId":1000261,"day":16,"placeName":"Holywood","type":3,"url":""},
{"sequence":262,"Latitude":54.66406,"Longitude":-5.66922,"entityId":1000262,"day":16,"placeName":"Bangor","type":3,"url":""},
{"sequence":263,"Latitude":54.59328,"Longitude":-5.6961,"entityId":1000263,"day":16,"placeName":"Newtownards","type":3,"url":""},
{"sequence":264,"Latitude":54.55038,"Longitude":-5.74561,"entityId":1000264,"day":16,"placeName":"Comber","type":3,"url":""},
{"sequence":265,"Latitude":54.59474,"Longitude":-5.81053,"entityId":1000265,"day":16,"placeName":"Dundonald","type":3,"url":""},
{"sequence":266,"Latitude":54.59921,"Longitude":-5.82842,"entityId":1000266,"day":16,"placeName":"Stormont","type":3,"url":""},
{"sequence":267,"Latitude":54.67788,"Longitude":-5.92492,"entityId":1000267,"day":16,"placeName":"Newtownabbey","type":3,"url":""},
{"sequence":268,"Latitude":54.71362,"Longitude":-5.80731,"entityId":1000268,"day":16,"placeName":"Carrickfergus","type":3,"url":""},
{"sequence":269,"Latitude":54.81667,"Longitude":-5.81667,"entityId":1000269,"day":16,"placeName":"Glynn","type":3,"url":""},
{"sequence":270,"Latitude":54.856,"Longitude":-5.823,"entityId":1000270,"day":16,"placeName":"Larne","type":3,"url":""},
{"sequence":271,"Latitude":54.8789,"Longitude":-5.83517,"entityId":1000271,"day":16,"placeName":"Drains Bay","type":3,"url":""},
{"sequence":272,"Latitude":54.89806,"Longitude":-5.85788,"entityId":1000272,"day":16,"placeName":"Ballygally","type":3,"url":""},
{"sequence":273,"Latitude":54.96667,"Longitude":-5.96667,"entityId":1000273,"day":16,"placeName":"Glenarm","type":3,"url":""},
{"sequence":274,"Latitude":54.99292,"Longitude":-5.98996,"entityId":1000274,"day":16,"placeName":"Carnlough","type":3,"url":""},
{"sequence":275,"Latitude":55.05,"Longitude":-6.06667,"entityId":1000275,"day":16,"placeName":"Glenariff","type":3,"url":""},
{"sequence":276,"Latitude":55.08079,"Longitude":-6.06393,"entityId":1000276,"day":16,"placeName":"Cushendall","type":3,"url":""},
{"sequence":277,"Latitude":55.20449,"Longitude":-6.24011,"entityId":1000277,"day":16,"placeName":"Ballycastle","type":3,"url":""},
{"sequence":278,"Latitude":55.12334,"Longitude":-6.46847,"entityId":1000278,"day":16,"placeName":"Dervock","type":3,"url":""},
{"sequence":279,"Latitude":55.20604,"Longitude":-6.52307,"entityId":1000279,"day":16,"placeName":"Bushmills","type":3,"url":""},
{"sequence":280,"Latitude":55.19646,"Longitude":-6.66746,"entityId":1000280,"day":16,"placeName":"Portrush","type":1,"url":"portrush"},
{"sequence":281,"Latitude":55.14,"Longitude":-6.714,"entityId":1000281,"day":17,"placeName":"River Bann","type":3,"url":""},
{"sequence":282,"Latitude":55.13159,"Longitude":-6.67186,"entityId":1000282,"day":17,"placeName":"Coleraine","type":3,"url":""},
{"sequence":283,"Latitude":55.13333,"Longitude":-6.76667,"entityId":1000283,"day":17,"placeName":"Articlave","type":3,"url":""},
{"sequence":284,"Latitude":55.16482,"Longitude":-6.78841,"entityId":1000284,"day":17,"placeName":"Castlerock","type":3,"url":""},
{"sequence":285,"Latitude":55.15603,"Longitude":-6.7985,"entityId":1000285,"day":17,"placeName":"Downhill","type":3,"url":""},
{"sequence":286,"Latitude":55.11169,"Longitude":-6.96032,"entityId":1000286,"day":17,"placeName":"Bellarena","type":3,"url":""},
{"sequence":287,"Latitude":55.04916,"Longitude":-6.94886,"entityId":1000287,"day":17,"placeName":"Limavady","type":3,"url":""},
{"sequence":288,"Latitude":55.04432,"Longitude":-7.01667,"entityId":1000288,"day":17,"placeName":"Ballykelly","type":3,"url":""},
{"sequence":289,"Latitude":55.03017,"Longitude":-7.12018,"entityId":1000289,"day":17,"placeName":"Greysteel","type":3,"url":""},
{"sequence":290,"Latitude":54.99458,"Longitude":-7.31925,"entityId":1000290,"day":17,"placeName":"Derry~Londonderry","type":1,"url":"derry-londonderry","followUpVisitDay":18},
{"sequence":291,"Latitude":54.95958,"Longitude":-7.3585,"entityId":1000291,"day":18,"placeName":"New Buildings","type":3,"url":""},
{"sequence":292,"Latitude":54.94145,"Longitude":-7.38219,"entityId":1000292,"day":18,"placeName":"Magheramason","type":3,"url":""},
{"sequence":293,"Latitude":54.9154,"Longitude":-7.41926,"entityId":1000293,"day":18,"placeName":"Bready","type":3,"url":""},
{"sequence":294,"Latitude":54.85803,"Longitude":-7.42983,"entityId":1000294,"day":18,"placeName":"Ballymagorry","type":3,"url":""},
{"sequence":295,"Latitude":54.82611,"Longitude":-7.4628,"entityId":1000295,"day":18,"placeName":"Strabane","type":3,"url":""},
{"sequence":296,"Latitude":54.78788,"Longitude":-7.47286,"entityId":1000296,"day":18,"placeName":"Sion Mills","type":3,"url":""},
{"sequence":297,"Latitude":54.59925,"Longitude":-7.30299,"entityId":1000297,"day":18,"placeName":"Omagh","type":3,"url":""},
{"sequence":298,"Latitude":54.51295,"Longitude":-7.45845,"entityId":1000298,"day":18,"placeName":"Dromore","type":3,"url":""},
{"sequence":299,"Latitude":54.47201,"Longitude":-7.63348,"entityId":1000299,"day":18,"placeName":"Irvinestown","type":3,"url":""},
{"sequence":300,"Latitude":54.34655,"Longitude":-7.64011,"entityId":1000300,"day":18,"placeName":"Enniskillen","type":3,"url":""},
{"sequence":301,"Latitude":54.37848,"Longitude":-7.31536,"entityId":1000301,"day":18,"placeName":"Fivemiletown","type":3,"url":""},
{"sequence":302,"Latitude":54.41327,"Longitude":-7.1687,"entityId":1000302,"day":18,"placeName":"Clogher","type":3,"url":""},
{"sequence":303,"Latitude":54.42795,"Longitude":-7.13136,"entityId":1000303,"day":18,"placeName":"Augher","type":3,"url":""},
{"sequence":304,"Latitude":54.41278,"Longitude":-6.97351,"entityId":1000304,"day":18,"placeName":"Aughnacloy","type":3,"url":""},
{"sequence":305,"Latitude":54.35097,"Longitude":-6.83775,"entityId":1000305,"day":18,"placeName":"Caledon","type":3,"url":""},
{"sequence":306,"Latitude":54.3482,"Longitude":-6.65404,"entityId":1000306,"day":18,"placeName":"Armagh","type":3,"url":""},
{"sequence":307,"Latitude":54.42413,"Longitude":-6.44121,"entityId":1000307,"day":18,"placeName":"Portadown","type":3,"url":""},
{"sequence":308,"Latitude":54.37352,"Longitude":-6.3596,"entityId":1000308,"day":18,"placeName":"Gilford","type":3,"url":""},
{"sequence":309,"Latitude":54.35142,"Longitude":-6.27146,"entityId":1000309,"day":18,"placeName":"Banbridge","type":3,"url":""},
{"sequence":310,"Latitude":54.16481,"Longitude":-6.32454,"entityId":1000310,"day":18,"placeName":"Newry","type":1,"url":"newry","followUpVisitDay":19},
{"sequence":311,"Latitude":54.51097,"Longitude":-6.04494,"entityId":1000311,"day":19,"placeName":"Lisburn","type":3,"url":""},
{"sequence":312,"Latitude":54.59318,"Longitude":-5.94222,"entityId":1000312,"day":19,"placeName":"Belfast","type":1,"url":"belfast","followUpVisitDay":16},
{"sequence":313,"Latitude":54.21183,"Longitude":-5.88972,"entityId":1000313,"day":20,"placeName":"Newcastle","type":3,"url":""},
{"sequence":314,"Latitude":54.2582,"Longitude":-5.84261,"entityId":1000314,"day":20,"placeName":"Dundrum","type":3,"url":""},
{"sequence":315,"Latitude":54.29113,"Longitude":-5.83718,"entityId":1000315,"day":20,"placeName":"Clough","type":3,"url":""},
{"sequence":316,"Latitude":54.32793,"Longitude":-5.71649,"entityId":1000316,"day":20,"placeName":"Downpatrick","type":3,"url":""},
{"sequence":317,"Latitude":54.39711,"Longitude":-5.7624,"entityId":1000317,"day":20,"placeName":"Crossgar","type":3,"url":""},
{"sequence":318,"Latitude":54.4604,"Longitude":-5.83258,"entityId":1000318,"day":20,"placeName":"Saintfield","type":3,"url":""},
{"sequence":319,"Latitude":54.4026,"Longitude":-5.89602,"entityId":1000319,"day":20,"placeName":"Ballynahinch","type":3,"url":""},
{"sequence":320,"Latitude":54.70072,"Longitude":-6.1035,"entityId":1000320,"day":20,"placeName":"Templepatrick","type":3,"url":""},
{"sequence":321,"Latitude":54.71514,"Longitude":-6.2192,"entityId":1000321,"day":20,"placeName":"Antrim","type":3,"url":""},
{"sequence":322,"Latitude":54.71667,"Longitude":-6.53333,"entityId":1000322,"day":20,"placeName":"Ballyronan","type":3,"url":""},
{"sequence":323,"Latitude":54.75448,"Longitude":-6.60781,"entityId":1000323,"day":20,"placeName":"Magherafelt","type":3,"url":""},
{"sequence":324,"Latitude":54.86544,"Longitude":-6.2758,"entityId":1000324,"day":20,"placeName":"Ballymena","type":3,"url":""},
{"sequence":325,"Latitude":54.81667,"Longitude":-6.15,"entityId":1000325,"day":20,"placeName":"Moorfields","type":5,"url":""},
{"sequence":326,"Latitude":54.90181,"Longitude":-5.03105,"entityId":1000326,"day":21,"placeName":"Stranraer","type":5,"url":""},
{"sequence":327,"Latitude":54.97344,"Longitude":-5.02487,"entityId":1000327,"day":21,"placeName":"Cairnryan","type":3,"url":""},
{"sequence":328,"Latitude":55.10206,"Longitude":-5.00244,"entityId":1000328,"day":21,"placeName":"Ballantrae","type":3,"url":""},
{"sequence":329,"Latitude":55.24031,"Longitude":-4.85608,"entityId":1000329,"day":21,"placeName":"Girvan","type":3,"url":""},
{"sequence":330,"Latitude":55.31094,"Longitude":-4.82951,"entityId":1000330,"day":21,"placeName":"Turnberry","type":3,"url":""},
{"sequence":331,"Latitude":55.33045,"Longitude":-4.81768,"entityId":1000331,"day":21,"placeName":"Maidens","type":3,"url":""},
{"sequence":332,"Latitude":55.33022,"Longitude":-4.77241,"entityId":1000332,"day":21,"placeName":"Kirkoswald","type":3,"url":""},
{"sequence":333,"Latitude":55.35172,"Longitude":-4.68749,"entityId":1000333,"day":21,"placeName":"Maybole","type":3,"url":""},
{"sequence":334,"Latitude":55.43202,"Longitude":-4.63301,"entityId":1000334,"day":21,"placeName":"Alloway","type":3,"url":""},
{"sequence":335,"Latitude":55.45976,"Longitude":-4.63229,"entityId":1000335,"day":21,"placeName":"Ayr","type":3,"url":""},
{"sequence":336,"Latitude":55.60784,"Longitude":-4.50013,"entityId":1000336,"day":21,"placeName":"Kilmarnock","type":3,"url":""},
{"sequence":337,"Latitude":55.63951,"Longitude":-4.53173,"entityId":1000337,"day":21,"placeName":"Kilmaurs","type":3,"url":""},
{"sequence":338,"Latitude":55.6833,"Longitude":-4.5111,"entityId":1000338,"day":21,"placeName":"Stewarton","type":3,"url":""},
{"sequence":339,"Latitude":55.71211,"Longitude":-4.53373,"entityId":1000339,"day":21,"placeName":"Dunlop","type":3,"url":""},
{"sequence":340,"Latitude":55.72961,"Longitude":-4.60236,"entityId":1000340,"day":21,"placeName":"Barrmill","type":3,"url":""},
{"sequence":341,"Latitude":55.74657,"Longitude":-4.63836,"entityId":1000341,"day":21,"placeName":"Beith","type":3,"url":""},
{"sequence":342,"Latitude":55.8007,"Longitude":-4.62594,"entityId":1000342,"day":21,"placeName":"Lochwinnoch","type":3,"url":""},
{"sequence":343,"Latitude":55.89085,"Longitude":-4.61595,"entityId":1000343,"day":21,"placeName":"Kilmacolm","type":3,"url":""},
{"sequence":344,"Latitude":55.93518,"Longitude":-4.69055,"entityId":1000344,"day":21,"placeName":"Port Glasgow","type":3,"url":""},
{"sequence":345,"Latitude":55.82781,"Longitude":-4.21612,"entityId":1000345,"day":21,"placeName":"Rutherglen","type":3,"url":""},
{"sequence":346,"Latitude":55.85432,"Longitude":-4.24107,"entityId":1000346,"day":21,"placeName":"Glasgow","type":3,"url":""},
{"sequence":347,"Latitude":55.80191,"Longitude":-4.28733,"entityId":1000347,"day":21,"placeName":"Giffnock","type":3,"url":""},
{"sequence":348,"Latitude":55.8601,"Longitude":-4.26373,"entityId":1000348,"day":21,"placeName":"Glasgow","type":1,"url":"glasgow","followUpVisitDay":22},
{"sequence":349,"Latitude":55.91884,"Longitude":-4.33173,"entityId":1000349,"day":22,"placeName":"Bearsden","type":3,"url":""},
{"sequence":350,"Latitude":55.90966,"Longitude":-4.40931,"entityId":1000350,"day":22,"placeName":"Clydebank","type":3,"url":""},
{"sequence":351,"Latitude":55.94505,"Longitude":-4.56268,"entityId":1000351,"day":22,"placeName":"Dumbarton","type":3,"url":""},
{"sequence":352,"Latitude":56.09915,"Longitude":-4.64243,"entityId":1000352,"day":22,"placeName":"Luss","type":3,"url":""},
{"sequence":353,"Latitude":56.20319,"Longitude":-4.7179,"entityId":1000353,"day":22,"placeName":"Tarbet","type":3,"url":""},
{"sequence":354,"Latitude":56.39409,"Longitude":-4.61805,"entityId":1000354,"day":22,"placeName":"Crianlarich","type":3,"url":""},
{"sequence":355,"Latitude":56.43722,"Longitude":-4.70214,"entityId":1000355,"day":22,"placeName":"Tyndrum","type":3,"url":""},
{"sequence":356,"Latitude":56.67973,"Longitude":-5.09507,"entityId":1000356,"day":22,"placeName":"Glencoe","type":3,"url":""},
{"sequence":357,"Latitude":56.69549,"Longitude":-5.1781,"entityId":1000357,"day":22,"placeName":"North Ballachullish","type":3,"url":""},
{"sequence":358,"Latitude":56.81428,"Longitude":-5.10616,"entityId":1000358,"day":22,"placeName":"Fort William","type":3,"url":""},
{"sequence":359,"Latitude":56.89079,"Longitude":-4.91545,"entityId":1000359,"day":22,"placeName":"Spean Bridge","type":3,"url":""},
{"sequence":360,"Latitude":57.14755,"Longitude":-4.68761,"entityId":1000360,"day":22,"placeName":"Fort Augustus","type":3,"url":""},
{"sequence":361,"Latitude":57.21176,"Longitude":-4.62603,"entityId":1000361,"day":22,"placeName":"Invermoriston","type":3,"url":""},
{"sequence":362,"Latitude":57.32248,"Longitude":-4.48442,"entityId":1000362,"day":22,"placeName":"Lewiston","type":3,"url":""},
{"sequence":363,"Latitude":57.33145,"Longitude":-4.48503,"entityId":1000363,"day":22,"placeName":"Drumnadrochit","type":3,"url":""},
{"sequence":364,"Latitude":57.48003,"Longitude":-4.2282,"entityId":1000364,"day":22,"placeName":"Inverness","type":4,"url":"inverness","followUpVisitDay":24},
{"sequence":365,"Latitude":58.97817,"Longitude":-2.94976,"entityId":1000365,"day":23,"placeName":"Kirkwall (Orkney Islands)","type":5,"url":""},
{"sequence":366,"Latitude":60.15523,"Longitude":-1.14623,"entityId":1000366,"day":23,"placeName":"Lerwick (Shetland Islands)","type":5,"url":""},
{"sequence":367,"Latitude":58.20583,"Longitude":-6.385,"entityId":1000367,"day":24,"placeName":"Stornoway","type":5,"url":""},
{"sequence":368,"Latitude":57.48003,"Longitude":-4.2282,"entityId":1000368,"day":24,"placeName":"Inverness","type":5,"url":""},
{"sequence":369,"Latitude":57.18995,"Longitude":-3.83005,"entityId":1000369,"day":24,"placeName":"Aviemore","type":3,"url":""},
{"sequence":370,"Latitude":57.28129,"Longitude":-3.8162,"entityId":1000370,"day":24,"placeName":"Carrbridge","type":3,"url":""},
{"sequence":371,"Latitude":57.3278,"Longitude":-3.60436,"entityId":1000371,"day":24,"placeName":"Grantown-on-Spey","type":3,"url":""},
{"sequence":372,"Latitude":57.25068,"Longitude":-3.38232,"entityId":1000372,"day":24,"placeName":"Tomintoul","type":3,"url":""},
{"sequence":373,"Latitude":57.03738,"Longitude":-3.21385,"entityId":1000373,"day":24,"placeName":"Crathie","type":3,"url":""},
{"sequence":374,"Latitude":57.04619,"Longitude":-3.04824,"entityId":1000374,"day":24,"placeName":"Ballater","type":3,"url":""},
{"sequence":375,"Latitude":57.07429,"Longitude":-2.90058,"entityId":1000375,"day":24,"placeName":"Dinnet","type":3,"url":""},
{"sequence":376,"Latitude":57.07507,"Longitude":-2.78514,"entityId":1000376,"day":24,"placeName":"Aboyne","type":3,"url":""},
{"sequence":377,"Latitude":57.08463,"Longitude":-2.68635,"entityId":1000377,"day":24,"placeName":"Kincardine O'Neil","type":3,"url":""},
{"sequence":378,"Latitude":57.04956,"Longitude":-2.50438,"entityId":1000378,"day":24,"placeName":"Banchory","type":3,"url":""},
{"sequence":379,"Latitude":57.07702,"Longitude":-2.3563,"entityId":1000379,"day":24,"placeName":"Drumoak","type":3,"url":""},
{"sequence":380,"Latitude":57.10247,"Longitude":-2.26362,"entityId":1000380,"day":24,"placeName":"Peterculter","type":3,"url":""},
{"sequence":381,"Latitude":57.11439,"Longitude":-2.20014,"entityId":1000381,"day":24,"placeName":"Bieldside","type":3,"url":""},
{"sequence":382,"Latitude":57.11642,"Longitude":-2.17573,"entityId":1000382,"day":24,"placeName":"Cults","type":3,"url":""},
{"sequence":383,"Latitude":57.14933,"Longitude":-2.12561,"entityId":1000383,"day":24,"placeName":"Aberdeen","type":1,"url":"aberdeen","followUpVisitDay":25},
{"sequence":384,"Latitude":56.96659,"Longitude":-2.2114,"entityId":1000384,"day":25,"placeName":"Stonehaven","type":3,"url":""},
{"sequence":385,"Latitude":56.78,"Longitude":-2.51712,"entityId":1000385,"day":25,"placeName":"Marykirk","type":3,"url":""},
{"sequence":386,"Latitude":56.74302,"Longitude":-2.48314,"entityId":1000386,"day":25,"placeName":"Hillside","type":3,"url":""},
{"sequence":387,"Latitude":56.70833,"Longitude":-2.46714,"entityId":1000387,"day":25,"placeName":"Montrose","type":3,"url":""},
{"sequence":388,"Latitude":56.72549,"Longitude":-2.6471,"entityId":1000388,"day":25,"placeName":"Brechin","type":3,"url":""},
{"sequence":389,"Latitude":56.64314,"Longitude":-2.89028,"entityId":1000389,"day":25,"placeName":"Forfar","type":3,"url":""},
{"sequence":390,"Latitude":56.58695,"Longitude":-3.16575,"entityId":1000390,"day":25,"placeName":"Meigle","type":3,"url":""},
{"sequence":391,"Latitude":56.55007,"Longitude":-3.26222,"entityId":1000391,"day":25,"placeName":"Coupar Angus","type":3,"url":""},
{"sequence":392,"Latitude":56.52417,"Longitude":-3.29454,"entityId":1000392,"day":25,"placeName":"Woodside","type":3,"url":""},
{"sequence":393,"Latitude":56.51082,"Longitude":-3.30295,"entityId":1000393,"day":25,"placeName":"Burrelton","type":3,"url":""},
{"sequence":394,"Latitude":56.45025,"Longitude":-3.35625,"entityId":1000394,"day":25,"placeName":"Balbeggie","type":3,"url":""},
{"sequence":395,"Latitude":56.42162,"Longitude":-3.40154,"entityId":1000395,"day":25,"placeName":"Scone","type":3,"url":""},
{"sequence":396,"Latitude":56.42239,"Longitude":-3.43632,"entityId":1000396,"day":25,"placeName":"Scone Palace","type":3,"url":""},
{"sequence":397,"Latitude":56.39545,"Longitude":-3.43531,"entityId":1000397,"day":25,"placeName":"Perth","type":3,"url":""},
{"sequence":398,"Latitude":56.33384,"Longitude":-3.31977,"entityId":1000398,"day":25,"placeName":"Abernethy","type":3,"url":""},
{"sequence":399,"Latitude":56.35264,"Longitude":-3.23951,"entityId":1000399,"day":25,"placeName":"Newburgh","type":3,"url":""},
{"sequence":400,"Latitude":56.31876,"Longitude":-3.01206,"entityId":1000400,"day":25,"placeName":"Cupar","type":3,"url":""},
{"sequence":401,"Latitude":56.34622,"Longitude":-2.94807,"entityId":1000401,"day":25,"placeName":"Dairsie","type":3,"url":""},
{"sequence":402,"Latitude":56.36467,"Longitude":-2.88378,"entityId":1000402,"day":25,"placeName":"Guardbridge","type":3,"url":""},
{"sequence":403,"Latitude":56.38232,"Longitude":-2.88386,"entityId":1000403,"day":25,"placeName":"Leuchars","type":3,"url":""},
{"sequence":404,"Latitude":56.46206,"Longitude":-2.9718,"entityId":1000404,"day":25,"placeName":"Dundee","type":1,"url":"dundee"},
{"sequence":405,"Latitude":56.33837,"Longitude":-2.78611,"entityId":1000405,"day":26,"placeName":"St. Andrews","type":3,"url":""},
{"sequence":406,"Latitude":56.22499,"Longitude":-3.4128,"entityId":1000406,"day":26,"placeName":"Milnathort","type":3,"url":""},
{"sequence":407,"Latitude":56.20684,"Longitude":-3.42825,"entityId":1000407,"day":26,"placeName":"Kinross","type":3,"url":""},
{"sequence":408,"Latitude":56.18732,"Longitude":-3.55643,"entityId":1000408,"day":26,"placeName":"Crook of Devon","type":3,"url":""},
{"sequence":409,"Latitude":56.1122,"Longitude":-3.79464,"entityId":1000409,"day":26,"placeName":"Alloa","type":3,"url":""},
{"sequence":410,"Latitude":56.15491,"Longitude":-3.94154,"entityId":1000410,"day":26,"placeName":"Bridge of Allan","type":3,"url":""},
{"sequence":411,"Latitude":56.19057,"Longitude":-3.95946,"entityId":1000411,"day":26,"placeName":"Dunblane","type":3,"url":""},
{"sequence":412,"Latitude":56.11899,"Longitude":-3.93973,"entityId":1000412,"day":26,"placeName":"Stirling","type":3,"url":""},
{"sequence":413,"Latitude":55.94795,"Longitude":-3.9791,"entityId":1000413,"day":26,"placeName":"Cumbernauld","type":3,"url":""},
{"sequence":414,"Latitude":56.02192,"Longitude":-3.82688,"entityId":1000414,"day":26,"placeName":"Larbert","type":3,"url":""},
{"sequence":415,"Latitude":56.00302,"Longitude":-3.82072,"entityId":1000415,"day":26,"placeName":"Camelon","type":3,"url":""},
{"sequence":416,"Latitude":56.00086,"Longitude":-3.78825,"entityId":1000416,"day":26,"placeName":"Falkirk","type":3,"url":""},
{"sequence":417,"Latitude":56.03184,"Longitude":-3.75881,"entityId":1000417,"day":26,"placeName":"Skinflats","type":3,"url":""},
{"sequence":418,"Latitude":56.06178,"Longitude":-3.53531,"entityId":1000418,"day":26,"placeName":"Cairneyhill","type":3,"url":""},
{"sequence":419,"Latitude":56.06218,"Longitude":-3.5032,"entityId":1000419,"day":26,"placeName":"Crossford","type":3,"url":""},
{"sequence":420,"Latitude":56.07193,"Longitude":-3.43932,"entityId":1000420,"day":26,"placeName":"Dunfermline","type":3,"url":""},
{"sequence":421,"Latitude":55.99714,"Longitude":-3.46075,"entityId":1000421,"day":26,"placeName":"Hopetoun House","type":3,"url":""},
{"sequence":422,"Latitude":55.93682,"Longitude":-3.46633,"entityId":1000422,"day":26,"placeName":"Broxburn","type":3,"url":""},
{"sequence":423,"Latitude":55.94905,"Longitude":-3.16252,"entityId":1000423,"day":26,"placeName":"Edinburgh","type":1,"url":"edinburgh","followUpVisitDay":27},
{"sequence":424,"Latitude":55.94222,"Longitude":-3.1337,"entityId":1000424,"day":27,"placeName":"Duddingston","type":3,"url":""},
{"sequence":425,"Latitude":55.95019,"Longitude":-3.03445,"entityId":1000425,"day":27,"placeName":"Musselburgh","type":3,"url":""},
{"sequence":426,"Latitude":55.89616,"Longitude":-3.049,"entityId":1000426,"day":27,"placeName":"Dalkeith","type":3,"url":""},
{"sequence":427,"Latitude":55.87777,"Longitude":-3.09645,"entityId":1000427,"day":27,"placeName":"Lasswade","type":3,"url":""},
{"sequence":428,"Latitude":55.87719,"Longitude":-3.16037,"entityId":1000428,"day":27,"placeName":"Loanhead","type":3,"url":""},
{"sequence":429,"Latitude":55.86805,"Longitude":-3.17608,"entityId":1000429,"day":27,"placeName":"Bilston","type":3,"url":""},
{"sequence":430,"Latitude":55.84993,"Longitude":-3.19151,"entityId":1000430,"day":27,"placeName":"Milton Bridge","type":3,"url":""},
{"sequence":431,"Latitude":55.83165,"Longitude":-3.22288,"entityId":1000431,"day":27,"placeName":"Penicuik","type":3,"url":""},
{"sequence":432,"Latitude":55.71503,"Longitude":-3.20331,"entityId":1000432,"day":27,"placeName":"Eddleston","type":3,"url":""},
{"sequence":433,"Latitude":55.6523,"Longitude":-3.1855,"entityId":1000433,"day":27,"placeName":"Peebles","type":3,"url":""},
{"sequence":434,"Latitude":55.61753,"Longitude":-3.05742,"entityId":1000434,"day":27,"placeName":"Innerleithen","type":3,"url":""},
{"sequence":435,"Latitude":55.62692,"Longitude":-3.01003,"entityId":1000435,"day":27,"placeName":"Walkerburn","type":3,"url":""},
{"sequence":436,"Latitude":55.54737,"Longitude":-2.83364,"entityId":1000436,"day":27,"placeName":"Selkirk","type":3,"url":""},
{"sequence":437,"Latitude":55.61847,"Longitude":-2.80558,"entityId":1000437,"day":27,"placeName":"Galashiels","type":3,"url":""},
{"sequence":438,"Latitude":55.63819,"Longitude":-2.67671,"entityId":1000438,"day":27,"placeName":"Earlston","type":3,"url":""},
{"sequence":439,"Latitude":55.68368,"Longitude":-2.56617,"entityId":1000439,"day":27,"placeName":"Gordon","type":3,"url":""},
{"sequence":440,"Latitude":55.7111,"Longitude":-2.45516,"entityId":1000440,"day":27,"placeName":"Greenlaw","type":3,"url":""},
{"sequence":441,"Latitude":55.77436,"Longitude":-2.34431,"entityId":1000441,"day":27,"placeName":"Duns","type":3,"url":""},
{"sequence":442,"Latitude":55.80163,"Longitude":-2.20099,"entityId":1000442,"day":27,"placeName":"Chirnside","type":3,"url":""},
{"sequence":443,"Latitude":55.79275,"Longitude":-2.1212,"entityId":1000443,"day":27,"placeName":"Foulden","type":3,"url":""},
{"sequence":444,"Latitude":55.76585,"Longitude":-2.00956,"entityId":1000444,"day":27,"placeName":"Berwick-Upon-Tweed","type":3,"url":""},
{"sequence":445,"Latitude":55.60381,"Longitude":-1.72383,"entityId":1000445,"day":27,"placeName":"Bamburgh","type":3,"url":""},
{"sequence":446,"Latitude":55.41508,"Longitude":-1.70935,"entityId":1000446,"day":27,"placeName":"Alnwick","type":1,"url":"alnwick","followUpVisitDay":28},
{"sequence":447,"Latitude":55.38791,"Longitude":-1.63062,"entityId":1000447,"day":28,"placeName":"Hipsburn","type":3,"url":""},
{"sequence":448,"Latitude":55.35192,"Longitude":-1.61519,"entityId":1000448,"day":28,"placeName":"Warkworth","type":3,"url":""},
{"sequence":449,"Latitude":55.32481,"Longitude":-1.56817,"entityId":1000449,"day":28,"placeName":"Amble","type":3,"url":""},
{"sequence":450,"Latitude":55.18104,"Longitude":-1.56972,"entityId":1000450,"day":28,"placeName":"Ashington","type":3,"url":""},
{"sequence":451,"Latitude":55.18087,"Longitude":-1.52262,"entityId":1000451,"day":28,"placeName":"Newbiggin-By-The-Sea","type":3,"url":""},
{"sequence":452,"Latitude":55.18104,"Longitude":-1.56972,"entityId":1000452,"day":28,"placeName":"Ashington","type":3,"url":""},
{"sequence":453,"Latitude":55.14521,"Longitude":-1.60149,"entityId":1000453,"day":28,"placeName":"Choppington","type":3,"url":""},
{"sequence":454,"Latitude":55.16341,"Longitude":-1.67979,"entityId":1000454,"day":28,"placeName":"Morpeth","type":3,"url":""},
{"sequence":455,"Latitude":55.10931,"Longitude":-1.58634,"entityId":1000455,"day":28,"placeName":"Hartford","type":3,"url":""},
{"sequence":456,"Latitude":55.12718,"Longitude":-1.58599,"entityId":1000456,"day":28,"placeName":"Bedlington","type":3,"url":""},
{"sequence":457,"Latitude":55.12695,"Longitude":-1.52326,"entityId":1000457,"day":28,"placeName":"Blyth","type":3,"url":""},
{"sequence":458,"Latitude":55.04575,"Longitude":-1.44597,"entityId":1000458,"day":28,"placeName":"Whitley Bay","type":3,"url":""},
{"sequence":459,"Latitude":55.02771,"Longitude":-1.43058,"entityId":1000459,"day":28,"placeName":"Cullercoats","type":3,"url":""},
{"sequence":460,"Latitude":55.01879,"Longitude":-1.44635,"entityId":1000460,"day":28,"placeName":"Tynemouth","type":3,"url":""},
{"sequence":461,"Latitude":55.00948,"Longitude":-1.44618,"entityId":1000461,"day":28,"placeName":"North Shields","type":3,"url":""},
{"sequence":462,"Latitude":55.00103,"Longitude":-1.49349,"entityId":1000462,"day":28,"placeName":"Howdon","type":3,"url":""},
{"sequence":463,"Latitude":54.99223,"Longitude":-1.54049,"entityId":1000463,"day":28,"placeName":"Wallsend","type":3,"url":""},
{"sequence":464,"Latitude":54.97447,"Longitude":-1.60318,"entityId":1000464,"day":28,"placeName":"Newcastle upon Tyne","type":1,"url":"newcastle"},
{"sequence":465,"Latitude":54.96197,"Longitude":-1.60246,"entityId":1000465,"day":29,"placeName":"Gateshead","type":3,"url":""},
{"sequence":466,"Latitude":54.99176,"Longitude":-1.43109,"entityId":1000466,"day":29,"placeName":"South Shields","type":3,"url":""},
{"sequence":467,"Latitude":54.95551,"Longitude":-1.36914,"entityId":1000467,"day":29,"placeName":"Whitburn","type":3,"url":""},
{"sequence":468,"Latitude":54.91066,"Longitude":-1.38544,"entityId":1000468,"day":29,"placeName":"Sunderland","type":3,"url":""},
{"sequence":469,"Latitude":54.92197,"Longitude":-1.59677,"entityId":1000469,"day":29,"placeName":"Low Fell & Chowdene","type":3,"url":""},
{"sequence":470,"Latitude":54.95685,"Longitude":-1.72828,"entityId":1000470,"day":29,"placeName":"Blaydon","type":3,"url":""},
{"sequence":471,"Latitude":54.95706,"Longitude":-1.8532,"entityId":1000471,"day":29,"placeName":"Prudhoe","type":3,"url":""},
{"sequence":472,"Latitude":54.94813,"Longitude":-1.91568,"entityId":1000472,"day":29,"placeName":"Stocksfield","type":3,"url":""},
{"sequence":473,"Latitude":54.96609,"Longitude":-2.10307,"entityId":1000473,"day":29,"placeName":"Hexham","type":3,"url":""},
{"sequence":474,"Latitude":54.94816,"Longitude":-1.97813,"entityId":1000474,"day":29,"placeName":"Riding Mill","type":3,"url":""},
{"sequence":475,"Latitude":54.85821,"Longitude":-1.85356,"entityId":1000475,"day":29,"placeName":"Consett","type":3,"url":""},
{"sequence":476,"Latitude":54.84026,"Longitude":-1.86919,"entityId":1000476,"day":29,"placeName":"Moorside","type":3,"url":""},
{"sequence":477,"Latitude":54.83127,"Longitude":-1.86922,"entityId":1000477,"day":29,"placeName":"Castleside","type":3,"url":""},
{"sequence":478,"Latitude":54.74135,"Longitude":-1.82292,"entityId":1000478,"day":29,"placeName":"Tow Law","type":3,"url":""},
{"sequence":479,"Latitude":54.7932,"Longitude":-1.69749,"entityId":1000479,"day":29,"placeName":"Esh","type":3,"url":""},
{"sequence":480,"Latitude":54.79663,"Longitude":-1.66959,"entityId":1000480,"day":29,"placeName":"Langley Park","type":3,"url":""},
{"sequence":481,"Latitude":54.77667,"Longitude":-1.57402,"entityId":1000481,"day":29,"placeName":"Durham","type":1,"url":"durham","followUpVisitDay":30},
{"sequence":482,"Latitude":54.77644,"Longitude":-1.51184,"entityId":1000482,"day":30,"placeName":"Sherburn","type":3,"url":""},
{"sequence":483,"Latitude":54.77485,"Longitude":-1.47634,"entityId":1000483,"day":30,"placeName":"Sherburn Hill","type":3,"url":""},
{"sequence":484,"Latitude":54.77603,"Longitude":-1.41857,"entityId":1000484,"day":30,"placeName":"Haswell Plough","type":3,"url":""},
{"sequence":485,"Latitude":54.75766,"Longitude":-1.34114,"entityId":1000485,"day":30,"placeName":"Peterlee","type":3,"url":""},
{"sequence":486,"Latitude":54.7652,"Longitude":-1.31315,"entityId":1000486,"day":30,"placeName":"Horden","type":3,"url":""},
{"sequence":487,"Latitude":54.74841,"Longitude":-1.29468,"entityId":1000487,"day":30,"placeName":"Blackhall Colliery","type":3,"url":""},
{"sequence":488,"Latitude":54.68504,"Longitude":-1.21822,"entityId":1000488,"day":30,"placeName":"Hartlepool","type":3,"url":""},
{"sequence":489,"Latitude":54.60455,"Longitude":-1.28169,"entityId":1000489,"day":30,"placeName":"Billingham","type":3,"url":""},
{"sequence":490,"Latitude":54.65037,"Longitude":-1.45136,"entityId":1000490,"day":30,"placeName":"Sedgefield","type":3,"url":""},
{"sequence":491,"Latitude":54.6512,"Longitude":-1.68382,"entityId":1000491,"day":30,"placeName":"Bishop Auckland","type":3,"url":""},
{"sequence":492,"Latitude":54.63309,"Longitude":-1.63749,"entityId":1000492,"day":30,"placeName":"Shildon","type":3,"url":""},
{"sequence":493,"Latitude":54.633,"Longitude":-1.60651,"entityId":1000493,"day":30,"placeName":"Middridge","type":3,"url":""},
{"sequence":494,"Latitude":54.61492,"Longitude":-1.57571,"entityId":1000494,"day":30,"placeName":"Newton Aycliffe","type":3,"url":""},
{"sequence":495,"Latitude":54.56288,"Longitude":-1.54741,"entityId":1000495,"day":30,"placeName":"High Beaumont Hill","type":3,"url":""},
{"sequence":496,"Latitude":54.54292,"Longitude":-1.54555,"entityId":1000496,"day":30,"placeName":"Harrogate Hill","type":3,"url":""},
{"sequence":497,"Latitude":54.525,"Longitude":-1.5612,"entityId":1000497,"day":30,"placeName":"Darlington","type":3,"url":""},
{"sequence":498,"Latitude":54.57785,"Longitude":-1.32857,"entityId":1000498,"day":30,"placeName":"Stockton-on-Tees","type":3,"url":""},
{"sequence":499,"Latitude":54.55913,"Longitude":-1.20517,"entityId":1000499,"day":30,"placeName":"Middlesbrough","type":1,"url":"middlesbrough","followUpVisitDay":31},
{"sequence":500,"Latitude":54.61492,"Longitude":-1.05905,"entityId":1000500,"day":31,"placeName":"Redcar","type":3,"url":""},
{"sequence":501,"Latitude":54.59371,"Longitude":-1.01878,"entityId":1000501,"day":31,"placeName":"Marske-by-the-Sea","type":3,"url":""},
{"sequence":502,"Latitude":54.58434,"Longitude":-0.97258,"entityId":1000502,"day":31,"placeName":"Saltburn-by-the-Sea","type":3,"url":""},
{"sequence":503,"Latitude":54.56761,"Longitude":-0.93894,"entityId":1000503,"day":31,"placeName":"Brotton","type":3,"url":""},
{"sequence":504,"Latitude":54.56583,"Longitude":-0.91118,"entityId":1000504,"day":31,"placeName":"Carlin How","type":3,"url":""},
{"sequence":505,"Latitude":54.55552,"Longitude":-0.89136,"entityId":1000505,"day":31,"placeName":"Loftus","type":3,"url":""},
{"sequence":506,"Latitude":54.53755,"Longitude":-0.77283,"entityId":1000506,"day":31,"placeName":"Hinderwell","type":3,"url":""},
{"sequence":507,"Latitude":54.50767,"Longitude":-0.69561,"entityId":1000507,"day":31,"placeName":"Lythe","type":3,"url":""},
{"sequence":508,"Latitude":54.50155,"Longitude":-0.66825,"entityId":1000508,"day":31,"placeName":"Sandsend","type":3,"url":""},
{"sequence":509,"Latitude":54.48469,"Longitude":-0.61775,"entityId":1000509,"day":31,"placeName":"Whitby","type":3,"url":""},
{"sequence":510,"Latitude":54.24831,"Longitude":-0.77876,"entityId":1000510,"day":31,"placeName":"Pickering","type":3,"url":""},
{"sequence":511,"Latitude":54.28322,"Longitude":-0.41041,"entityId":1000511,"day":31,"placeName":"Scarborough","type":3,"url":""},
{"sequence":512,"Latitude":54.20873,"Longitude":-0.29038,"entityId":1000512,"day":31,"placeName":"Filey","type":3,"url":""},
{"sequence":513,"Latitude":54.08846,"Longitude":-0.19311,"entityId":1000513,"day":31,"placeName":"Bridlington","type":3,"url":""},
{"sequence":514,"Latitude":53.84639,"Longitude":-0.42227,"entityId":1000514,"day":31,"placeName":"Beverley","type":3,"url":""},
{"sequence":515,"Latitude":53.74447,"Longitude":-0.34041,"entityId":1000515,"day":31,"placeName":"Hull","type":1,"url":"hull","followUpVisitDay":32},
{"sequence":516,"Latitude":53.72927,"Longitude":-0.57429,"entityId":1000516,"day":32,"placeName":"Brough","type":3,"url":""},
{"sequence":517,"Latitude":53.70452,"Longitude":-0.87646,"entityId":1000517,"day":32,"placeName":"Goole","type":3,"url":""},
{"sequence":518,"Latitude":53.72868,"Longitude":-1.02086,"entityId":1000518,"day":32,"placeName":"Camblesforth","type":3,"url":""},
{"sequence":519,"Latitude":53.78457,"Longitude":-1.06845,"entityId":1000519,"day":32,"placeName":"Selby","type":3,"url":""},
{"sequence":520,"Latitude":53.76056,"Longitude":-1.23452,"entityId":1000520,"day":32,"placeName":"Monk Fryston","type":3,"url":""},
{"sequence":521,"Latitude":53.82118,"Longitude":-1.2528,"entityId":1000521,"day":32,"placeName":"Barkston Ash","type":3,"url":""},
{"sequence":522,"Latitude":53.88512,"Longitude":-1.26282,"entityId":1000522,"day":32,"placeName":"Tadcaster","type":3,"url":""},
{"sequence":523,"Latitude":53.90393,"Longitude":-1.35158,"entityId":1000523,"day":32,"placeName":"Boston Spa","type":3,"url":""},
{"sequence":524,"Latitude":53.92973,"Longitude":-1.38567,"entityId":1000524,"day":32,"placeName":"Wetherby","type":3,"url":""},
{"sequence":525,"Latitude":53.9028,"Longitude":-1.50864,"entityId":1000525,"day":32,"placeName":"Harewood","type":3,"url":""},
{"sequence":526,"Latitude":54.01115,"Longitude":-1.46099,"entityId":1000526,"day":32,"placeName":"Knaresborough","type":3,"url":""},
{"sequence":527,"Latitude":53.99377,"Longitude":-1.53738,"entityId":1000527,"day":32,"placeName":"Harrogate","type":3,"url":""},
{"sequence":528,"Latitude":54.13763,"Longitude":-1.52035,"entityId":1000528,"day":32,"placeName":"Ripon","type":3,"url":""},
{"sequence":529,"Latitude":53.96234,"Longitude":-1.08799,"entityId":1000529,"day":32,"placeName":"York","type":1,"url":"york","followUpVisitDay":33},
{"sequence":530,"Latitude":54.23473,"Longitude":-1.34612,"entityId":1000530,"day":33,"placeName":"Thirsk","type":3,"url":""},
{"sequence":531,"Latitude":54.34468,"Longitude":-1.42467,"entityId":1000531,"day":33,"placeName":"Northallerton","type":3,"url":""},
{"sequence":532,"Latitude":54.2914,"Longitude":-1.57904,"entityId":1000532,"day":33,"placeName":"Aiskew","type":3,"url":""},
{"sequence":533,"Latitude":54.29004,"Longitude":-1.59357,"entityId":1000533,"day":33,"placeName":"Bedale","type":3,"url":""},
{"sequence":534,"Latitude":54.29213,"Longitude":-1.99384,"entityId":1000534,"day":33,"placeName":"Aysgarth","type":3,"url":""},
{"sequence":535,"Latitude":54.30989,"Longitude":-1.82721,"entityId":1000535,"day":33,"placeName":"Leyburn","type":3,"url":""},
{"sequence":536,"Latitude":54.40587,"Longitude":-1.73468,"entityId":1000536,"day":33,"placeName":"Richmond","type":3,"url":""},
{"sequence":537,"Latitude":54.54405,"Longitude":-1.92019,"entityId":1000537,"day":33,"placeName":"Barnard Castle","type":3,"url":""},
{"sequence":538,"Latitude":54.52492,"Longitude":-2.31793,"entityId":1000538,"day":33,"placeName":"Brough","type":3,"url":""},
{"sequence":539,"Latitude":54.57873,"Longitude":-2.48886,"entityId":1000539,"day":33,"placeName":"Appleby-in-Westmorland","type":3,"url":""},
{"sequence":540,"Latitude":54.66528,"Longitude":-2.75378,"entityId":1000540,"day":33,"placeName":"Penrith","type":3,"url":""},
{"sequence":541,"Latitude":54.9004,"Longitude":-2.93114,"entityId":1000541,"day":33,"placeName":"Carlisle","type":1,"url":"carlisle","followUpVisitDay":34},
{"sequence":542,"Latitude":55.06768,"Longitude":-3.60301,"entityId":1000542,"day":34,"placeName":"Dumfries","type":3,"url":""},
{"sequence":543,"Latitude":54.9874,"Longitude":-3.25999,"entityId":1000543,"day":34,"placeName":"Annan","type":3,"url":""},
{"sequence":544,"Latitude":54.98597,"Longitude":-3.18051,"entityId":1000544,"day":34,"placeName":"Eastriggs","type":3,"url":""},
{"sequence":545,"Latitude":54.99686,"Longitude":-3.06779,"entityId":1000545,"day":34,"placeName":"Gretna","type":3,"url":""},
{"sequence":546,"Latitude":54.9004,"Longitude":-2.93114,"entityId":1000546,"day":34,"placeName":"Carlisle","type":3,"url":""},
{"sequence":547,"Latitude":54.82541,"Longitude":-3.15973,"entityId":1000547,"day":34,"placeName":"Wigton","type":3,"url":""},
{"sequence":548,"Latitude":54.7619,"Longitude":-3.32868,"entityId":1000548,"day":34,"placeName":"Aspatria","type":3,"url":""},
{"sequence":549,"Latitude":54.7136,"Longitude":-3.49964,"entityId":1000549,"day":34,"placeName":"Maryport","type":3,"url":""},
{"sequence":550,"Latitude":54.68723,"Longitude":-3.51509,"entityId":1000550,"day":34,"placeName":"Flimby","type":3,"url":""},
{"sequence":551,"Latitude":54.63708,"Longitude":-3.55219,"entityId":1000551,"day":34,"placeName":"Workington","type":3,"url":""},
{"sequence":552,"Latitude":54.54948,"Longitude":-3.58793,"entityId":1000552,"day":34,"placeName":"Whitehaven","type":3,"url":""},
{"sequence":553,"Latitude":54.66174,"Longitude":-3.35851,"entityId":1000553,"day":34,"placeName":"Cockermouth","type":3,"url":""},
{"sequence":554,"Latitude":54.60285,"Longitude":-3.13842,"entityId":1000554,"day":34,"placeName":"Keswick","type":3,"url":""},
{"sequence":555,"Latitude":54.45895,"Longitude":-3.02584,"entityId":1000555,"day":34,"placeName":"Grasmere","type":3,"url":""},
{"sequence":556,"Latitude":54.43226,"Longitude":-2.96427,"entityId":1000556,"day":34,"placeName":"Ambleside","type":3,"url":""},
{"sequence":557,"Latitude":54.36372,"Longitude":-2.91496,"entityId":1000557,"day":34,"placeName":"Bowness-on-Windermere","type":1,"url":"bowness-on-windermere"},
{"sequence":558,"Latitude":54.32649,"Longitude":-2.74783,"entityId":1000558,"day":35,"placeName":"Kendal","type":3,"url":""},
{"sequence":559,"Latitude":54.22722,"Longitude":-2.77412,"entityId":1000559,"day":35,"placeName":"Milnthorpe","type":3,"url":""},
{"sequence":560,"Latitude":54.12804,"Longitude":-2.7722,"entityId":1000560,"day":35,"placeName":"Carnforth","type":3,"url":""},
{"sequence":561,"Latitude":54.10979,"Longitude":-2.78923,"entityId":1000561,"day":35,"placeName":"Bolton-le-Sands","type":3,"url":""},
{"sequence":562,"Latitude":54.09038,"Longitude":-2.80636,"entityId":1000562,"day":35,"placeName":"Hest Bank","type":3,"url":""},
{"sequence":563,"Latitude":54.06423,"Longitude":-2.88005,"entityId":1000563,"day":35,"placeName":"Morecambe","type":3,"url":""},
{"sequence":564,"Latitude":54.0476,"Longitude":-2.80117,"entityId":1000564,"day":35,"placeName":"Lancaster","type":3,"url":""},
{"sequence":565,"Latitude":53.90239,"Longitude":-2.77179,"entityId":1000565,"day":35,"placeName":"Garstang","type":3,"url":""},
{"sequence":566,"Latitude":53.86388,"Longitude":-2.81955,"entityId":1000566,"day":35,"placeName":"St Michael's On Wyre","type":3,"url":""},
{"sequence":567,"Latitude":53.92193,"Longitude":-3.01845,"entityId":1000567,"day":35,"placeName":"Fleetwood","type":3,"url":""},
{"sequence":568,"Latitude":53.88066,"Longitude":-3.04323,"entityId":1000568,"day":35,"placeName":"Cleveleys","type":3,"url":""},
{"sequence":569,"Latitude":53.81171,"Longitude":-3.04247,"entityId":1000569,"day":35,"placeName":"Blackpool","type":1,"url":"blackpool"},
{"sequence":570,"Latitude":53.73963,"Longitude":-3.0097,"entityId":1000570,"day":36,"placeName":"Lytham St Anne's","type":3,"url":""},
{"sequence":571,"Latitude":53.74939,"Longitude":-2.89673,"entityId":1000571,"day":36,"placeName":"Warton","type":3,"url":""},
{"sequence":572,"Latitude":53.75939,"Longitude":-2.70599,"entityId":1000572,"day":36,"placeName":"Preston","type":3,"url":""},
{"sequence":573,"Latitude":53.74632,"Longitude":-2.47943,"entityId":1000573,"day":36,"placeName":"Blackburn","type":3,"url":""},
{"sequence":574,"Latitude":53.7532,"Longitude":-2.36929,"entityId":1000574,"day":36,"placeName":"Accrington","type":3,"url":""},
{"sequence":575,"Latitude":53.7893,"Longitude":-2.24765,"entityId":1000575,"day":36,"placeName":"Burnley","type":3,"url":""},
{"sequence":576,"Latitude":53.72478,"Longitude":-2.28395,"entityId":1000576,"day":36,"placeName":"Crawshawbooth","type":3,"url":""},
{"sequence":577,"Latitude":53.71705,"Longitude":-2.2885,"entityId":1000577,"day":36,"placeName":"Reedsholme","type":3,"url":""},
{"sequence":578,"Latitude":53.7047,"Longitude":-2.28227,"entityId":1000578,"day":36,"placeName":"Rawtenstall","type":3,"url":""},
{"sequence":579,"Latitude":53.61666,"Longitude":-2.15799,"entityId":1000579,"day":36,"placeName":"Rochdale","type":3,"url":""},
{"sequence":580,"Latitude":53.59383,"Longitude":-2.22226,"entityId":1000580,"day":36,"placeName":"Heywood","type":3,"url":""},
{"sequence":581,"Latitude":53.59357,"Longitude":-2.29325,"entityId":1000581,"day":36,"placeName":"Bury","type":3,"url":""},
{"sequence":582,"Latitude":53.55337,"Longitude":-2.2969,"entityId":1000582,"day":36,"placeName":"Whitefield","type":3,"url":""},
{"sequence":583,"Latitude":53.53126,"Longitude":-2.27908,"entityId":1000583,"day":36,"placeName":"Prestwich","type":3,"url":""},
{"sequence":584,"Latitude":53.50091,"Longitude":-2.2653,"entityId":1000584,"day":36,"placeName":"Higher Broughton","type":3,"url":""},
{"sequence":585,"Latitude":53.50178,"Longitude":-2.23611,"entityId":1000585,"day":36,"placeName":"Cheetham Hill","type":3,"url":""},
{"sequence":586,"Latitude":53.47419,"Longitude":-2.23335,"entityId":1000586,"day":36,"placeName":"Manchester","type":1,"url":"manchester"},
{"sequence":587,"Latitude":53.48286,"Longitude":-2.2602,"entityId":1000587,"day":37,"placeName":"Salford","type":3,"url":""},
{"sequence":588,"Latitude":53.46633,"Longitude":-2.32672,"entityId":1000588,"day":37,"placeName":"Trafford","type":3,"url":""},
{"sequence":589,"Latitude":53.456,"Longitude":-2.24996,"entityId":1000589,"day":37,"placeName":"Moss Side","type":3,"url":""},
{"sequence":590,"Latitude":53.45485,"Longitude":-2.22498,"entityId":1000590,"day":37,"placeName":"Rusholme","type":3,"url":""},
{"sequence":591,"Latitude":53.45706,"Longitude":-2.20536,"entityId":1000591,"day":37,"placeName":"Longsight","type":3,"url":""},
{"sequence":592,"Latitude":53.44573,"Longitude":-2.19142,"entityId":1000592,"day":37,"placeName":"Levenshulme","type":3,"url":""},
{"sequence":593,"Latitude":53.40948,"Longitude":-2.15978,"entityId":1000593,"day":37,"placeName":"Stockport","type":3,"url":""},
{"sequence":594,"Latitude":53.49219,"Longitude":-2.08438,"entityId":1000594,"day":37,"placeName":"Ashton-under-Lyne","type":3,"url":""},
{"sequence":595,"Latitude":53.54158,"Longitude":-2.11478,"entityId":1000595,"day":37,"placeName":"Oldham","type":3,"url":""},
{"sequence":596,"Latitude":53.65268,"Longitude":-1.81164,"entityId":1000596,"day":37,"placeName":"Marsh","type":3,"url":""},
{"sequence":597,"Latitude":53.64572,"Longitude":-1.78264,"entityId":1000597,"day":37,"placeName":"Huddersfield","type":3,"url":""},
{"sequence":598,"Latitude":53.70524,"Longitude":-1.78108,"entityId":1000598,"day":37,"placeName":"Brighouse","type":3,"url":""},
{"sequence":599,"Latitude":53.72337,"Longitude":-1.86248,"entityId":1000599,"day":37,"placeName":"Halifax","type":3,"url":""},
{"sequence":600,"Latitude":53.78857,"Longitude":-1.75105,"entityId":1000600,"day":37,"placeName":"Bradford","type":3,"url":""},
{"sequence":601,"Latitude":53.86899,"Longitude":-1.90175,"entityId":1000601,"day":37,"placeName":"Keighley","type":3,"url":""},
{"sequence":602,"Latitude":53.96072,"Longitude":-2.0202,"entityId":1000602,"day":37,"placeName":"Skipton","type":3,"url":""},
{"sequence":603,"Latitude":53.92462,"Longitude":-1.82562,"entityId":1000603,"day":37,"placeName":"Ilkley","type":3,"url":""},
{"sequence":604,"Latitude":53.82251,"Longitude":-1.57313,"entityId":1000604,"day":37,"placeName":"Headingley","type":3,"url":""},
{"sequence":605,"Latitude":53.82408,"Longitude":-1.54003,"entityId":1000605,"day":37,"placeName":"Potternewton","type":3,"url":""},
{"sequence":606,"Latitude":53.81263,"Longitude":-1.51653,"entityId":1000606,"day":37,"placeName":"Harehills","type":3,"url":""},
{"sequence":607,"Latitude":53.79499,"Longitude":-1.52292,"entityId":1000607,"day":37,"placeName":"Richmond Hill","type":3,"url":""},
{"sequence":608,"Latitude":53.80167,"Longitude":-1.54108,"entityId":1000608,"day":37,"placeName":"Leeds","type":1,"url":"leeds","followUpVisitDay":38},
{"sequence":609,"Latitude":53.78344,"Longitude":-1.53593,"entityId":1000609,"day":38,"placeName":"Hunslet","type":3,"url":""},
{"sequence":610,"Latitude":53.76957,"Longitude":-1.56953,"entityId":1000610,"day":38,"placeName":"Beeston","type":3,"url":""},
{"sequence":611,"Latitude":53.74365,"Longitude":-1.59928,"entityId":1000611,"day":38,"placeName":"Morley","type":3,"url":""},
{"sequence":612,"Latitude":53.71646,"Longitude":-1.63332,"entityId":1000612,"day":38,"placeName":"Batley","type":3,"url":""},
{"sequence":613,"Latitude":53.69464,"Longitude":-1.63032,"entityId":1000613,"day":38,"placeName":"Dewsbury","type":3,"url":""},
{"sequence":614,"Latitude":53.68124,"Longitude":-1.49719,"entityId":1000614,"day":38,"placeName":"Wakefield","type":3,"url":""},
{"sequence":615,"Latitude":53.72327,"Longitude":-1.35432,"entityId":1000615,"day":38,"placeName":"Castleford","type":3,"url":""},
{"sequence":616,"Latitude":53.68979,"Longitude":-1.31013,"entityId":1000616,"day":38,"placeName":"Pontefract","type":3,"url":""},
{"sequence":617,"Latitude":53.64254,"Longitude":-1.34186,"entityId":1000617,"day":38,"placeName":"Ackworth","type":3,"url":""},
{"sequence":618,"Latitude":53.56116,"Longitude":-1.43381,"entityId":1000618,"day":38,"placeName":"Lundwood","type":3,"url":""},
{"sequence":619,"Latitude":53.5538,"Longitude":-1.43545,"entityId":1000619,"day":38,"placeName":"Cundy Cross","type":3,"url":""},
{"sequence":620,"Latitude":53.55339,"Longitude":-1.48175,"entityId":1000620,"day":38,"placeName":"Barnsley","type":3,"url":""},
{"sequence":621,"Latitude":53.58838,"Longitude":-1.51909,"entityId":1000621,"day":38,"placeName":"Darton","type":3,"url":""},
{"sequence":622,"Latitude":53.58144,"Longitude":-1.54431,"entityId":1000622,"day":38,"placeName":"Kexbrough","type":3,"url":""},
{"sequence":623,"Latitude":53.46304,"Longitude":-1.46606,"entityId":1000623,"day":38,"placeName":"Chapeltown","type":3,"url":""},
{"sequence":624,"Latitude":53.44501,"Longitude":-1.46431,"entityId":1000624,"day":38,"placeName":"Ecclesfield","type":3,"url":""},
{"sequence":625,"Latitude":53.42621,"Longitude":-1.46657,"entityId":1000625,"day":38,"placeName":"Parson Cross","type":3,"url":""},
{"sequence":626,"Latitude":53.39445,"Longitude":-1.41257,"entityId":1000626,"day":38,"placeName":"Sheffield","type":1,"url":"sheffield","followUpVisitDay":39},
{"sequence":627,"Latitude":53.42923,"Longitude":-1.35109,"entityId":1000627,"day":39,"placeName":"Rotherham","type":3,"url":""},
{"sequence":628,"Latitude":53.40973,"Longitude":-1.34488,"entityId":1000628,"day":39,"placeName":"Templeborough","type":3,"url":""},
{"sequence":629,"Latitude":53.44385,"Longitude":-1.31552,"entityId":1000629,"day":39,"placeName":"Dalton","type":3,"url":""},
{"sequence":630,"Latitude":53.45303,"Longitude":-1.29929,"entityId":1000630,"day":39,"placeName":"Thrybergh","type":3,"url":""},
{"sequence":631,"Latitude":53.48087,"Longitude":-1.2291,"entityId":1000631,"day":39,"placeName":"Conisbrough","type":3,"url":""},
{"sequence":632,"Latitude":53.49921,"Longitude":-1.18111,"entityId":1000632,"day":39,"placeName":"Warmsworth","type":3,"url":""},
{"sequence":633,"Latitude":53.51943,"Longitude":-1.13401,"entityId":1000633,"day":39,"placeName":"Doncaster","type":3,"url":""},
{"sequence":634,"Latitude":53.53649,"Longitude":-1.05922,"entityId":1000634,"day":39,"placeName":"Armthorpe","type":3,"url":""},
{"sequence":635,"Latitude":53.56278,"Longitude":-1.02353,"entityId":1000635,"day":39,"placeName":"Dunsville","type":3,"url":""},
{"sequence":636,"Latitude":53.57623,"Longitude":-1.00118,"entityId":1000636,"day":39,"placeName":"Hatfield","type":3,"url":""},
{"sequence":637,"Latitude":53.59432,"Longitude":-0.65446,"entityId":1000637,"day":39,"placeName":"Scunthorpe","type":3,"url":""},
{"sequence":638,"Latitude":53.55399,"Longitude":-0.48565,"entityId":1000638,"day":39,"placeName":"Brigg","type":3,"url":""},
{"sequence":639,"Latitude":53.56382,"Longitude":-0.45785,"entityId":1000639,"day":39,"placeName":"Wrawby","type":3,"url":""},
{"sequence":640,"Latitude":53.61698,"Longitude":-0.20647,"entityId":1000640,"day":39,"placeName":"Immingham","type":3,"url":""},
{"sequence":641,"Latitude":53.56719,"Longitude":-0.07496,"entityId":1000641,"day":39,"placeName":"Grimsby","type":3,"url":""},
{"sequence":642,"Latitude":53.55706,"Longitude":-0.03021,"entityId":1000642,"day":39,"placeName":"Cleethorpes","type":1,"url":"cleethorpes"},
{"sequence":643,"Latitude":53.56719,"Longitude":-0.07496,"entityId":1000643,"day":40,"placeName":"Grimsby","type":3,"url":""},
{"sequence":644,"Latitude":53.36752,"Longitude":0.00134,"entityId":1000644,"day":40,"placeName":"Louth","type":3,"url":""},
{"sequence":645,"Latitude":53.33874,"Longitude":0.05072,"entityId":1000645,"day":40,"placeName":"Legbourne","type":3,"url":""},
{"sequence":646,"Latitude":53.31999,"Longitude":0.15283,"entityId":1000646,"day":40,"placeName":"Withern","type":3,"url":""},
{"sequence":647,"Latitude":53.31019,"Longitude":0.19737,"entityId":1000647,"day":40,"placeName":"Maltby Le Marsh","type":3,"url":""},
{"sequence":648,"Latitude":53.34291,"Longitude":0.25997,"entityId":1000648,"day":40,"placeName":"Mablethorpe","type":3,"url":""},
{"sequence":649,"Latitude":53.32677,"Longitude":0.27237,"entityId":1000649,"day":40,"placeName":"Trusthorpe","type":3,"url":""},
{"sequence":650,"Latitude":53.31343,"Longitude":0.28095,"entityId":1000650,"day":40,"placeName":"Sutton-on-Sea","type":3,"url":""},
{"sequence":651,"Latitude":53.24591,"Longitude":0.26902,"entityId":1000651,"day":40,"placeName":"Mumby","type":3,"url":""},
{"sequence":652,"Latitude":53.22738,"Longitude":0.29801,"entityId":1000652,"day":40,"placeName":"Hogsthorpe","type":3,"url":""},
{"sequence":653,"Latitude":53.19275,"Longitude":0.33665,"entityId":1000653,"day":40,"placeName":"Ingoldmells","type":3,"url":""},
{"sequence":654,"Latitude":53.16522,"Longitude":0.33598,"entityId":1000654,"day":40,"placeName":"Winthorpe","type":3,"url":""},
{"sequence":655,"Latitude":53.14582,"Longitude":0.3298,"entityId":1000655,"day":40,"placeName":"Skegness","type":3,"url":""},
{"sequence":656,"Latitude":53.10961,"Longitude":0.23367,"entityId":1000656,"day":40,"placeName":"Wainfleet All Saints","type":3,"url":""},
{"sequence":657,"Latitude":53.03985,"Longitude":0.12346,"entityId":1000657,"day":40,"placeName":"Wrangle","type":3,"url":""},
{"sequence":658,"Latitude":52.97914,"Longitude":-0.0185,"entityId":1000658,"day":40,"placeName":"Boston","type":3,"url":""},
{"sequence":659,"Latitude":52.99762,"Longitude":-0.41289,"entityId":1000659,"day":40,"placeName":"Sleaford","type":3,"url":""},
{"sequence":660,"Latitude":53.19438,"Longitude":-0.52726,"entityId":1000660,"day":40,"placeName":"Bracebridge Heath","type":3,"url":""},
{"sequence":661,"Latitude":53.23161,"Longitude":-0.54081,"entityId":1000661,"day":40,"placeName":"Lincoln","type":1,"url":"lincoln","followUpVisitDay":41},
{"sequence":662,"Latitude":53.27135,"Longitude":-0.65913,"entityId":1000662,"day":41,"placeName":"Saxilby","type":3,"url":""},
{"sequence":663,"Latitude":53.25345,"Longitude":-0.83905,"entityId":1000663,"day":41,"placeName":"Darlton","type":3,"url":""},
{"sequence":664,"Latitude":53.25133,"Longitude":-0.88669,"entityId":1000664,"day":41,"placeName":"East Markham","type":3,"url":""},
{"sequence":665,"Latitude":53.22872,"Longitude":-0.89946,"entityId":1000665,"day":41,"placeName":"Tuxford","type":3,"url":""},
{"sequence":666,"Latitude":53.21726,"Longitude":-0.96366,"entityId":1000666,"day":41,"placeName":"Kirton","type":3,"url":""},
{"sequence":667,"Latitude":53.20828,"Longitude":-0.99094,"entityId":1000667,"day":41,"placeName":"Boughton","type":3,"url":""},
{"sequence":668,"Latitude":53.19324,"Longitude":-1.06428,"entityId":1000668,"day":41,"placeName":"Edwinstowe","type":3,"url":""},
{"sequence":669,"Latitude":53.14637,"Longitude":-1.19945,"entityId":1000669,"day":41,"placeName":"Mansfield","type":3,"url":""},
{"sequence":670,"Latitude":53.0911,"Longitude":-0.84423,"entityId":1000670,"day":41,"placeName":"Kelham","type":3,"url":""},
{"sequence":671,"Latitude":53.07284,"Longitude":-0.81486,"entityId":1000671,"day":41,"placeName":"Newark-on-Trent","type":3,"url":""},
{"sequence":672,"Latitude":53.05455,"Longitude":-0.78203,"entityId":1000672,"day":41,"placeName":"Balderton","type":3,"url":""},
{"sequence":673,"Latitude":52.91576,"Longitude":-0.64164,"entityId":1000673,"day":41,"placeName":"Grantham","type":3,"url":""},
{"sequence":674,"Latitude":52.94806,"Longitude":-1.03617,"entityId":1000674,"day":41,"placeName":"Radcliffe-on-Trent","type":3,"url":""},
{"sequence":675,"Latitude":52.95338,"Longitude":-1.14874,"entityId":1000675,"day":41,"placeName":"Nottingham","type":1,"url":"nottingham","followUpVisitDay":42},
{"sequence":676,"Latitude":53.19174,"Longitude":-1.28768,"entityId":1000676,"day":42,"placeName":"Glapwell","type":3,"url":""},
{"sequence":677,"Latitude":53.22905,"Longitude":-1.2906,"entityId":1000677,"day":42,"placeName":"Bolsover","type":3,"url":""},
{"sequence":678,"Latitude":53.23641,"Longitude":-1.3819,"entityId":1000678,"day":42,"placeName":"Calow","type":3,"url":""},
{"sequence":679,"Latitude":53.23468,"Longitude":-1.42609,"entityId":1000679,"day":42,"placeName":"Chesterfield","type":3,"url":""},
{"sequence":680,"Latitude":53.13579,"Longitude":-1.55877,"entityId":1000680,"day":42,"placeName":"Matlock","type":3,"url":""},
{"sequence":681,"Latitude":53.16797,"Longitude":-1.60507,"entityId":1000681,"day":42,"placeName":"Darley Dale","type":3,"url":""},
{"sequence":682,"Latitude":53.21399,"Longitude":-1.67769,"entityId":1000682,"day":42,"placeName":"Bakewell","type":3,"url":""},
{"sequence":683,"Latitude":53.25894,"Longitude":-1.90706,"entityId":1000683,"day":42,"placeName":"Buxton","type":3,"url":""},
{"sequence":684,"Latitude":53.01641,"Longitude":-1.72999,"entityId":1000684,"day":42,"placeName":"Ashbourne","type":3,"url":""},
{"sequence":685,"Latitude":52.91851,"Longitude":-1.47484,"entityId":1000685,"day":42,"placeName":"Derby","type":1,"url":"derby","followUpVisitDay":43},
{"sequence":686,"Latitude":52.79952,"Longitude":-1.63808,"entityId":1000686,"day":43,"placeName":"Burton upon Trent","type":3,"url":""},
{"sequence":687,"Latitude":52.692,"Longitude":-1.78692,"entityId":1000687,"day":43,"placeName":"Streethay","type":3,"url":""},
{"sequence":688,"Latitude":52.68379,"Longitude":-1.82978,"entityId":1000688,"day":43,"placeName":"Lichfield","type":3,"url":""},
{"sequence":689,"Latitude":52.64204,"Longitude":-1.74154,"entityId":1000689,"day":43,"placeName":"Hopwas","type":3,"url":""},
{"sequence":690,"Latitude":52.63392,"Longitude":-1.68982,"entityId":1000690,"day":43,"placeName":"Tamworth","type":3,"url":""},
{"sequence":691,"Latitude":52.66522,"Longitude":-2.00884,"entityId":1000691,"day":43,"placeName":"Great Wyrley","type":3,"url":""},
{"sequence":692,"Latitude":52.63825,"Longitude":-2.00884,"entityId":1000692,"day":43,"placeName":"Newtown","type":3,"url":""},
{"sequence":693,"Latitude":52.61791,"Longitude":-2.0069,"entityId":1000693,"day":43,"placeName":"Bloxwich","type":3,"url":""},
{"sequence":694,"Latitude":52.60892,"Longitude":-2.00436,"entityId":1000694,"day":43,"placeName":"Leamore","type":3,"url":""},
{"sequence":695,"Latitude":52.59331,"Longitude":-1.99407,"entityId":1000695,"day":43,"placeName":"Birchills","type":3,"url":""},
{"sequence":696,"Latitude":52.5873,"Longitude":-1.98119,"entityId":1000696,"day":43,"placeName":"Walsall","type":3,"url":""},
{"sequence":697,"Latitude":52.5843,"Longitude":-2.04902,"entityId":1000697,"day":43,"placeName":"Willenhall","type":3,"url":""},
{"sequence":698,"Latitude":52.58451,"Longitude":-2.12723,"entityId":1000698,"day":43,"placeName":"Wolverhampton","type":3,"url":""},
{"sequence":699,"Latitude":52.51256,"Longitude":-2.09747,"entityId":1000699,"day":43,"placeName":"Dudley","type":3,"url":""},
{"sequence":700,"Latitude":52.49446,"Longitude":-2.02361,"entityId":1000700,"day":43,"placeName":"Oldbury","type":3,"url":""},
{"sequence":701,"Latitude":52.52452,"Longitude":-2.00056,"entityId":1000701,"day":43,"placeName":"West Bromwich","type":3,"url":""},
{"sequence":702,"Latitude":52.48542,"Longitude":-1.96463,"entityId":1000702,"day":43,"placeName":"Smethwick","type":3,"url":""},
{"sequence":703,"Latitude":52.49499,"Longitude":-1.91347,"entityId":1000703,"day":43,"placeName":"Birmingham","type":1,"url":"birmingham","followUpVisitDay":44},
{"sequence":704,"Latitude":52.41316,"Longitude":-1.77523,"entityId":1000704,"day":44,"placeName":"Solihull","type":3,"url":""},
{"sequence":705,"Latitude":52.36844,"Longitude":-1.83254,"entityId":1000705,"day":44,"placeName":"Earlswood","type":3,"url":""},
{"sequence":706,"Latitude":52.30589,"Longitude":-1.93818,"entityId":1000706,"day":44,"placeName":"Redditch","type":3,"url":""},
{"sequence":707,"Latitude":52.26066,"Longitude":-1.9355,"entityId":1000707,"day":44,"placeName":"Astwood Bank","type":3,"url":""},
{"sequence":708,"Latitude":52.21553,"Longitude":-1.87204,"entityId":1000708,"day":44,"placeName":"Alcester","type":3,"url":""},
{"sequence":709,"Latitude":52.09198,"Longitude":-1.9493,"entityId":1000709,"day":44,"placeName":"Evesham","type":3,"url":""},
{"sequence":710,"Latitude":52.07226,"Longitude":-1.90558,"entityId":1000710,"day":44,"placeName":"Wickhamford","type":3,"url":""},
{"sequence":711,"Latitude":52.03561,"Longitude":-1.8624,"entityId":1000711,"day":44,"placeName":"Broadway","type":3,"url":""},
{"sequence":712,"Latitude":52.0516,"Longitude":-1.77824,"entityId":1000712,"day":44,"placeName":"Chipping Campden","type":3,"url":""},
{"sequence":713,"Latitude":52.11459,"Longitude":-1.64052,"entityId":1000713,"day":44,"placeName":"Newbold on Stour","type":3,"url":""},
{"sequence":714,"Latitude":52.13511,"Longitude":-1.66221,"entityId":1000714,"day":44,"placeName":"Alderminster","type":3,"url":""},
{"sequence":715,"Latitude":52.1974,"Longitude":-1.71614,"entityId":1000715,"day":44,"placeName":"Stratford-Upon-Avon","type":3,"url":""},
{"sequence":716,"Latitude":52.286,"Longitude":-1.58108,"entityId":1000716,"day":44,"placeName":"Warwick","type":3,"url":""},
{"sequence":717,"Latitude":52.28675,"Longitude":-1.53965,"entityId":1000717,"day":44,"placeName":"Royal Leamington Spa","type":3,"url":""},
{"sequence":718,"Latitude":52.34293,"Longitude":-1.57502,"entityId":1000718,"day":44,"placeName":"Kenilworth","type":3,"url":""},
{"sequence":719,"Latitude":52.40915,"Longitude":-1.51358,"entityId":1000719,"day":44,"placeName":"Coventry","type":1,"url":"coventry","followUpVisitDay":45},
{"sequence":720,"Latitude":52.37395,"Longitude":-1.26082,"entityId":1000720,"day":45,"placeName":"Rugby","type":3,"url":""},
{"sequence":721,"Latitude":52.33826,"Longitude":-1.28984,"entityId":1000721,"day":45,"placeName":"Dunchurch","type":3,"url":""},
{"sequence":722,"Latitude":52.23852,"Longitude":-0.90249,"entityId":1000722,"day":45,"placeName":"Northampton","type":3,"url":""},
{"sequence":723,"Latitude":52.29838,"Longitude":-0.69007,"entityId":1000723,"day":45,"placeName":"Wellingborough","type":3,"url":""},
{"sequence":724,"Latitude":52.35448,"Longitude":-0.70272,"entityId":1000724,"day":45,"placeName":"Isham","type":3,"url":""},
{"sequence":725,"Latitude":52.39754,"Longitude":-0.71546,"entityId":1000725,"day":45,"placeName":"Kettering","type":3,"url":""},
{"sequence":726,"Latitude":52.44049,"Longitude":-0.68523,"entityId":1000726,"day":45,"placeName":"Geddington","type":3,"url":""},
{"sequence":727,"Latitude":52.49194,"Longitude":-0.6997,"entityId":1000727,"day":45,"placeName":"Corby","type":3,"url":""},
{"sequence":728,"Latitude":52.48037,"Longitude":-0.86358,"entityId":1000728,"day":45,"placeName":"Dingley","type":3,"url":""},
{"sequence":729,"Latitude":52.4791,"Longitude":-0.92003,"entityId":1000729,"day":45,"placeName":"Market Harborough","type":3,"url":""},
{"sequence":730,"Latitude":52.4799,"Longitude":-0.96353,"entityId":1000730,"day":45,"placeName":"Lubenham","type":3,"url":""},
{"sequence":731,"Latitude":52.5012,"Longitude":-0.96537,"entityId":1000731,"day":45,"placeName":"Foxton","type":3,"url":""},
{"sequence":732,"Latitude":52.54414,"Longitude":-0.99223,"entityId":1000732,"day":45,"placeName":"Kibworth Harcourt","type":3,"url":""},
{"sequence":733,"Latitude":52.59851,"Longitude":-1.07986,"entityId":1000733,"day":45,"placeName":"Oadby","type":3,"url":""},
{"sequence":734,"Latitude":52.63511,"Longitude":-1.13704,"entityId":1000734,"day":45,"placeName":"Leicester","type":1,"url":"leicester","followUpVisitDay":46},
{"sequence":735,"Latitude":52.74272,"Longitude":-1.17173,"entityId":1000735,"day":46,"placeName":"Quorn","type":3,"url":""},
{"sequence":736,"Latitude":52.76987,"Longitude":-1.21591,"entityId":1000736,"day":46,"placeName":"Loughborough","type":3,"url":""},
{"sequence":737,"Latitude":52.79754,"Longitude":-1.1491,"entityId":1000737,"day":46,"placeName":"Hoton","type":3,"url":""},
{"sequence":738,"Latitude":52.80549,"Longitude":-1.10455,"entityId":1000738,"day":46,"placeName":"Wymeswold","type":3,"url":""},
{"sequence":739,"Latitude":52.76648,"Longitude":-0.95536,"entityId":1000739,"day":46,"placeName":"Asfordby","type":3,"url":""},
{"sequence":740,"Latitude":52.76644,"Longitude":-0.88511,"entityId":1000740,"day":46,"placeName":"Melton Mowbray","type":3,"url":""},
{"sequence":741,"Latitude":52.69334,"Longitude":-0.75133,"entityId":1000741,"day":46,"placeName":"Langham","type":3,"url":""},
{"sequence":742,"Latitude":52.67371,"Longitude":-0.73277,"entityId":1000742,"day":46,"placeName":"Oakham","type":3,"url":""},
{"sequence":743,"Latitude":52.58889,"Longitude":-0.72438,"entityId":1000743,"day":46,"placeName":"Uppingham","type":3,"url":""},
{"sequence":744,"Latitude":52.65374,"Longitude":-0.48301,"entityId":1000744,"day":46,"placeName":"Stamford","type":3,"url":""},
{"sequence":745,"Latitude":52.578,"Longitude":-0.25434,"entityId":1000745,"day":46,"placeName":"Peterborough","type":1,"url":"peterborough","followUpVisitDay":47},
{"sequence":746,"Latitude":52.67826,"Longitude":-0.32133,"entityId":1000746,"day":47,"placeName":"Market Deeping","type":3,"url":""},
{"sequence":747,"Latitude":52.73766,"Longitude":-0.38039,"entityId":1000747,"day":47,"placeName":"Thurlby","type":3,"url":""},
{"sequence":748,"Latitude":52.76959,"Longitude":-0.37779,"entityId":1000748,"day":47,"placeName":"Bourne","type":3,"url":""},
{"sequence":749,"Latitude":52.78641,"Longitude":-0.15332,"entityId":1000749,"day":47,"placeName":"Spalding","type":3,"url":""},
{"sequence":750,"Latitude":52.80042,"Longitude":-0.06306,"entityId":1000750,"day":47,"placeName":"Moulton","type":3,"url":""},
{"sequence":751,"Latitude":52.80118,"Longitude":-0.03716,"entityId":1000751,"day":47,"placeName":"Whaplode","type":3,"url":""},
{"sequence":752,"Latitude":52.807,"Longitude":0.02084,"entityId":1000752,"day":47,"placeName":"Holbeach","type":3,"url":""},
{"sequence":753,"Latitude":52.78365,"Longitude":0.12316,"entityId":1000753,"day":47,"placeName":"Long Sutton","type":3,"url":""},
{"sequence":754,"Latitude":52.75609,"Longitude":0.39444,"entityId":1000754,"day":47,"placeName":"King's Lynn","type":3,"url":""},
{"sequence":755,"Latitude":52.77575,"Longitude":0.43691,"entityId":1000755,"day":47,"placeName":"South Wootton","type":3,"url":""},
{"sequence":756,"Latitude":52.8145,"Longitude":0.6917,"entityId":1000756,"day":47,"placeName":"West Rudham","type":3,"url":""},
{"sequence":757,"Latitude":52.82216,"Longitude":0.71295,"entityId":1000757,"day":47,"placeName":"East Rudham","type":3,"url":""},
{"sequence":758,"Latitude":52.83729,"Longitude":0.85268,"entityId":1000758,"day":47,"placeName":"Fakenham","type":3,"url":""},
{"sequence":759,"Latitude":52.90415,"Longitude":1.09632,"entityId":1000759,"day":47,"placeName":"Holt","type":3,"url":""},
{"sequence":760,"Latitude":52.93264,"Longitude":1.29794,"entityId":1000760,"day":47,"placeName":"Cromer","type":3,"url":""},
{"sequence":761,"Latitude":52.79592,"Longitude":1.2538,"entityId":1000761,"day":47,"placeName":"Aylsham","type":3,"url":""},
{"sequence":762,"Latitude":52.62858,"Longitude":1.29222,"entityId":1000762,"day":47,"placeName":"Norwich","type":1,"url":"norwich","followUpVisitDay":48},
{"sequence":763,"Latitude":52.63911,"Longitude":1.55004,"entityId":1000763,"day":48,"placeName":"Acle","type":3,"url":""},
{"sequence":764,"Latitude":52.66331,"Longitude":1.64821,"entityId":1000764,"day":48,"placeName":"Filby","type":3,"url":""},
{"sequence":765,"Latitude":52.6069,"Longitude":1.72943,"entityId":1000765,"day":48,"placeName":"Great Yarmouth","type":3,"url":""},
{"sequence":766,"Latitude":52.47594,"Longitude":1.75293,"entityId":1000766,"day":48,"placeName":"Lowestoft","type":3,"url":""},
{"sequence":767,"Latitude":52.38417,"Longitude":1.66748,"entityId":1000767,"day":48,"placeName":"Wrentham","type":3,"url":""},
{"sequence":768,"Latitude":52.34276,"Longitude":1.6684,"entityId":1000768,"day":48,"placeName":"Reydon","type":3,"url":""},
{"sequence":769,"Latitude":52.32751,"Longitude":1.67799,"entityId":1000769,"day":48,"placeName":"Southwold","type":3,"url":""},
{"sequence":770,"Latitude":52.23482,"Longitude":1.49014,"entityId":1000770,"day":48,"placeName":"Kelsale","type":3,"url":""},
{"sequence":771,"Latitude":52.21805,"Longitude":1.49011,"entityId":1000771,"day":48,"placeName":"Saxmundham","type":3,"url":""},
{"sequence":772,"Latitude":52.15204,"Longitude":1.60172,"entityId":1000772,"day":48,"placeName":"Aldeburgh","type":3,"url":""},
{"sequence":773,"Latitude":52.15148,"Longitude":1.36754,"entityId":1000773,"day":48,"placeName":"Wickham Market","type":3,"url":""},
{"sequence":774,"Latitude":52.1232,"Longitude":1.35266,"entityId":1000774,"day":48,"placeName":"Ufford","type":3,"url":""},
{"sequence":775,"Latitude":52.10568,"Longitude":1.33345,"entityId":1000775,"day":48,"placeName":"Melton","type":3,"url":""},
{"sequence":776,"Latitude":52.09698,"Longitude":1.31068,"entityId":1000776,"day":48,"placeName":"Woodbridge","type":3,"url":""},
{"sequence":777,"Latitude":51.96274,"Longitude":1.35295,"entityId":1000777,"day":48,"placeName":"Felixstowe","type":3,"url":""},
{"sequence":778,"Latitude":52.05801,"Longitude":1.15281,"entityId":1000778,"day":48,"placeName":"Ipswich","type":1,"url":"ipswich","followUpVisitDay":49},
{"sequence":779,"Latitude":51.89274,"Longitude":0.90125,"entityId":1000779,"day":49,"placeName":"Colchester","type":3,"url":""},
{"sequence":780,"Latitude":51.77414,"Longitude":0.5985,"entityId":1000780,"day":49,"placeName":"Hatfield Peverel","type":3,"url":""},
{"sequence":781,"Latitude":51.74384,"Longitude":0.68556,"entityId":1000781,"day":49,"placeName":"Heybridge","type":3,"url":""},
{"sequence":782,"Latitude":51.73352,"Longitude":0.67487,"entityId":1000782,"day":49,"placeName":"Maldon","type":3,"url":""},
{"sequence":783,"Latitude":51.58631,"Longitude":0.60979,"entityId":1000783,"day":49,"placeName":"Rayleigh","type":3,"url":""},
{"sequence":784,"Latitude":51.53887,"Longitude":0.7115,"entityId":1000784,"day":49,"placeName":"Southend-on-Sea","type":3,"url":""},
{"sequence":785,"Latitude":51.55556,"Longitude":0.61274,"entityId":1000785,"day":49,"placeName":"Hadleigh","type":3,"url":""},
{"sequence":786,"Latitude":51.57767,"Longitude":0.5025,"entityId":1000786,"day":49,"placeName":"Basildon","type":3,"url":""},
{"sequence":787,"Latitude":51.47576,"Longitude":0.32365,"entityId":1000787,"day":49,"placeName":"Grays","type":3,"url":""},
{"sequence":788,"Latitude":51.59891,"Longitude":0.34482,"entityId":1000788,"day":49,"placeName":"Herongate","type":3,"url":""},
{"sequence":789,"Latitude":51.62045,"Longitude":0.30285,"entityId":1000789,"day":49,"placeName":"Brentwood","type":3,"url":""},
{"sequence":790,"Latitude":51.73454,"Longitude":0.47238,"entityId":1000790,"day":49,"placeName":"Chelmsford","type":1,"url":"chelmsford","followUpVisitDay":50},
{"sequence":791,"Latitude":51.76721,"Longitude":0.10014,"entityId":1000791,"day":50,"placeName":"Harlow","type":3,"url":""},
{"sequence":792,"Latitude":51.6877,"Longitude":0.00058,"entityId":1000792,"day":50,"placeName":"Waltham Abbey","type":3,"url":""},
{"sequence":793,"Latitude":51.68692,"Longitude":-0.04126,"entityId":1000793,"day":50,"placeName":"Waltham Cross","type":3,"url":""},
{"sequence":794,"Latitude":51.7951,"Longitude":-0.08309,"entityId":1000794,"day":50,"placeName":"Hertford","type":3,"url":""},
{"sequence":795,"Latitude":51.81141,"Longitude":-0.02709,"entityId":1000795,"day":50,"placeName":"Ware","type":3,"url":""},
{"sequence":796,"Latitude":51.86984,"Longitude":0.16667,"entityId":1000796,"day":50,"placeName":"Bishop's Stortford","type":3,"url":""},
{"sequence":797,"Latitude":51.89847,"Longitude":0.20049,"entityId":1000797,"day":50,"placeName":"Stansted Mountfitchet","type":3,"url":""},
{"sequence":798,"Latitude":51.98052,"Longitude":0.21653,"entityId":1000798,"day":50,"placeName":"Newport","type":3,"url":""},
{"sequence":799,"Latitude":52.02157,"Longitude":0.24113,"entityId":1000799,"day":50,"placeName":"Saffron Walden","type":3,"url":""},
{"sequence":800,"Latitude":52.08305,"Longitude":0.43194,"entityId":1000800,"day":50,"placeName":"Haverhill","type":3,"url":""},
{"sequence":801,"Latitude":52.24742,"Longitude":0.71584,"entityId":1000801,"day":50,"placeName":"Bury St Edmunds","type":3,"url":""},
{"sequence":802,"Latitude":52.24448,"Longitude":0.40843,"entityId":1000802,"day":50,"placeName":"Newmarket","type":3,"url":""},
{"sequence":803,"Latitude":52.20429,"Longitude":0.13365,"entityId":1000803,"day":50,"placeName":"Cambridge","type":1,"url":"cambridge","followUpVisitDay":51},
{"sequence":804,"Latitude":52.33545,"Longitude":-0.08076,"entityId":1000804,"day":51,"placeName":"St Ives","type":3,"url":""},
{"sequence":805,"Latitude":52.33395,"Longitude":-0.17946,"entityId":1000805,"day":51,"placeName":"Huntingdon","type":3,"url":""},
{"sequence":806,"Latitude":52.13507,"Longitude":-0.46378,"entityId":1000806,"day":51,"placeName":"Bedford","type":3,"url":""},
{"sequence":807,"Latitude":52.0956,"Longitude":-0.41741,"entityId":1000807,"day":51,"placeName":"Cotton End","type":3,"url":""},
{"sequence":808,"Latitude":51.97722,"Longitude":-0.23151,"entityId":1000808,"day":51,"placeName":"Letchworth Garden City","type":3,"url":""},
{"sequence":809,"Latitude":51.90433,"Longitude":-0.19651,"entityId":1000809,"day":51,"placeName":"Stevenage","type":3,"url":""},
{"sequence":810,"Latitude":51.8063,"Longitude":-0.19565,"entityId":1000810,"day":51,"placeName":"Welwyn Garden City","type":3,"url":""},
{"sequence":811,"Latitude":51.75814,"Longitude":-0.22632,"entityId":1000811,"day":51,"placeName":"Hatfield","type":3,"url":""},
{"sequence":812,"Latitude":51.7518,"Longitude":-0.33519,"entityId":1000812,"day":51,"placeName":"St Albans","type":3,"url":""},
{"sequence":813,"Latitude":51.75118,"Longitude":-0.47253,"entityId":1000813,"day":51,"placeName":"Hemel Hempstead","type":3,"url":""},
{"sequence":814,"Latitude":51.88088,"Longitude":-0.40486,"entityId":1000814,"day":51,"placeName":"Luton","type":1,"url":"luton","followUpVisitDay":52},
{"sequence":815,"Latitude":51.88854,"Longitude":-0.51619,"entityId":1000815,"day":52,"placeName":"Dunstable","type":3,"url":""},
{"sequence":816,"Latitude":52.03616,"Longitude":-0.75707,"entityId":1000816,"day":52,"placeName":"Milton Keynes","type":3,"url":""},
{"sequence":817,"Latitude":52.00014,"Longitude":-0.73615,"entityId":1000817,"day":52,"placeName":"Bletchley","type":3,"url":""},
{"sequence":818,"Latitude":51.99697,"Longitude":-0.98392,"entityId":1000818,"day":52,"placeName":"Buckingham","type":3,"url":""},
{"sequence":819,"Latitude":51.9426,"Longitude":-0.88524,"entityId":1000819,"day":52,"placeName":"Winslow","type":3,"url":""},
{"sequence":820,"Latitude":51.87781,"Longitude":-0.83557,"entityId":1000820,"day":52,"placeName":"Whitchurch","type":3,"url":""},
{"sequence":821,"Latitude":51.81518,"Longitude":-0.81609,"entityId":1000821,"day":52,"placeName":"Aylesbury","type":3,"url":""},
{"sequence":822,"Latitude":51.78651,"Longitude":-0.79101,"entityId":1000822,"day":52,"placeName":"Stoke Mandeville","type":3,"url":""},
{"sequence":823,"Latitude":51.81518,"Longitude":-0.81609,"entityId":1000823,"day":52,"placeName":"Aylesbury","type":3,"url":""},
{"sequence":824,"Latitude":51.84389,"Longitude":-0.92337,"entityId":1000824,"day":52,"placeName":"Waddesdon","type":3,"url":""},
{"sequence":825,"Latitude":51.89844,"Longitude":-1.15153,"entityId":1000825,"day":52,"placeName":"Bicester","type":3,"url":""},
{"sequence":826,"Latitude":51.8731,"Longitude":-1.27954,"entityId":1000826,"day":52,"placeName":"Kirtlington","type":3,"url":""},
{"sequence":827,"Latitude":51.84642,"Longitude":-1.35499,"entityId":1000827,"day":52,"placeName":"Woodstock","type":3,"url":""},
{"sequence":828,"Latitude":51.8206,"Longitude":-1.28598,"entityId":1000828,"day":52,"placeName":"Kidlington","type":3,"url":""},
{"sequence":829,"Latitude":51.75302,"Longitude":-1.25764,"entityId":1000829,"day":52,"placeName":"Oxford","type":1,"url":"oxford","followUpVisitDay":53},
{"sequence":830,"Latitude":51.6728,"Longitude":-1.28177,"entityId":1000830,"day":53,"placeName":"Abingdon","type":3,"url":""},
{"sequence":831,"Latitude":51.59967,"Longitude":-1.12655,"entityId":1000831,"day":53,"placeName":"Wallingford","type":3,"url":""},
{"sequence":832,"Latitude":51.59967,"Longitude":-1.11311,"entityId":1000832,"day":53,"placeName":"Crowmarsh Gifford","type":3,"url":""},
{"sequence":833,"Latitude":51.57488,"Longitude":-0.99463,"entityId":1000833,"day":53,"placeName":"Nettlebed","type":3,"url":""},
{"sequence":834,"Latitude":51.53691,"Longitude":-0.90174,"entityId":1000834,"day":53,"placeName":"Henley-on-Thames","type":3,"url":""},
{"sequence":835,"Latitude":51.56063,"Longitude":-0.77154,"entityId":1000835,"day":53,"placeName":"Bisham (Bisham Abbey)","type":3,"url":""},
{"sequence":836,"Latitude":51.52472,"Longitude":-0.72956,"entityId":1000836,"day":53,"placeName":"Maidenhead","type":3,"url":""},
{"sequence":837,"Latitude":51.51146,"Longitude":-0.59395,"entityId":1000837,"day":53,"placeName":"Slough","type":3,"url":""},
{"sequence":838,"Latitude":51.48037,"Longitude":-0.61256,"entityId":1000838,"day":53,"placeName":"Windsor","type":3,"url":""},
{"sequence":839,"Latitude":51.43327,"Longitude":-0.55621,"entityId":1000839,"day":53,"placeName":"Egham","type":3,"url":""},
{"sequence":840,"Latitude":51.40912,"Longitude":-0.67259,"entityId":1000840,"day":53,"placeName":"Ascot","type":3,"url":""},
{"sequence":841,"Latitude":51.41266,"Longitude":-0.75349,"entityId":1000841,"day":53,"placeName":"Bracknell","type":3,"url":""},
{"sequence":842,"Latitude":51.44544,"Longitude":-0.95374,"entityId":1000842,"day":53,"placeName":"Reading","type":1,"url":"reading","followUpVisitDay":54},
{"sequence":843,"Latitude":51.43845,"Longitude":-1.07508,"entityId":1000843,"day":54,"placeName":"Theale","type":3,"url":""},
{"sequence":844,"Latitude":51.40421,"Longitude":-1.26103,"entityId":1000844,"day":54,"placeName":"Thatcham","type":3,"url":""},
{"sequence":845,"Latitude":51.40328,"Longitude":-1.32109,"entityId":1000845,"day":54,"placeName":"Newbury","type":3,"url":""},
{"sequence":846,"Latitude":51.26548,"Longitude":-1.0887,"entityId":1000846,"day":54,"placeName":"Basingstoke","type":3,"url":""},
{"sequence":847,"Latitude":51.09383,"Longitude":-1.29599,"entityId":1000847,"day":54,"placeName":"Kings Worthy","type":3,"url":""},
{"sequence":848,"Latitude":51.06258,"Longitude":-1.31169,"entityId":1000848,"day":54,"placeName":"Winchester","type":3,"url":""},
{"sequence":849,"Latitude":51.20769,"Longitude":-1.47913,"entityId":1000849,"day":54,"placeName":"Andover","type":3,"url":""},
{"sequence":850,"Latitude":51.25501,"Longitude":-1.62253,"entityId":1000850,"day":54,"placeName":"Ludgershall","type":3,"url":""},
{"sequence":851,"Latitude":51.23996,"Longitude":-1.65718,"entityId":1000851,"day":54,"placeName":"Tidworth","type":3,"url":""},
{"sequence":852,"Latitude":51.17261,"Longitude":-1.77739,"entityId":1000852,"day":54,"placeName":"Amesbury","type":3,"url":""},
{"sequence":853,"Latitude":51.11605,"Longitude":-1.76277,"entityId":1000853,"day":54,"placeName":"The Winterbournes","type":3,"url":""},
{"sequence":854,"Latitude":51.07351,"Longitude":-1.79466,"entityId":1000854,"day":54,"placeName":"Salisbury","type":1,"url":"salisbury","followUpVisitDay":55},
{"sequence":855,"Latitude":51.08156,"Longitude":-1.86428,"entityId":1000855,"day":55,"placeName":"Wilton","type":3,"url":""},
{"sequence":856,"Latitude":51.08181,"Longitude":-1.92069,"entityId":1000856,"day":55,"placeName":"Barford St Martin","type":3,"url":""},
{"sequence":857,"Latitude":51.06205,"Longitude":-1.99521,"entityId":1000857,"day":55,"placeName":"Fovant","type":3,"url":""},
{"sequence":858,"Latitude":51.00283,"Longitude":-2.12579,"entityId":1000858,"day":55,"placeName":"Ludwell","type":3,"url":""},
{"sequence":859,"Latitude":51.00368,"Longitude":-2.19469,"entityId":1000859,"day":55,"placeName":"Shaftesbury","type":3,"url":""},
{"sequence":860,"Latitude":50.95018,"Longitude":-2.19128,"entityId":1000860,"day":55,"placeName":"Fontmell Magna","type":3,"url":""},
{"sequence":861,"Latitude":50.92956,"Longitude":-2.19262,"entityId":1000861,"day":55,"placeName":"Iwerne Minster","type":3,"url":""},
{"sequence":862,"Latitude":50.88533,"Longitude":-2.19566,"entityId":1000862,"day":55,"placeName":"Stourpaine","type":3,"url":""},
{"sequence":863,"Latitude":50.85754,"Longitude":-2.16415,"entityId":1000863,"day":55,"placeName":"Blandford Forum","type":3,"url":""},
{"sequence":864,"Latitude":50.80257,"Longitude":-2.23366,"entityId":1000864,"day":55,"placeName":"Winterborne Whitechurch","type":3,"url":""},
{"sequence":865,"Latitude":50.77832,"Longitude":-2.28157,"entityId":1000865,"day":55,"placeName":"Milborne St Andrew","type":3,"url":""},
{"sequence":866,"Latitude":50.74997,"Longitude":-2.34569,"entityId":1000866,"day":55,"placeName":"Puddletown","type":3,"url":""},
{"sequence":867,"Latitude":50.7158,"Longitude":-2.44141,"entityId":1000867,"day":55,"placeName":"Dorchester","type":3,"url":""},
{"sequence":868,"Latitude":50.71329,"Longitude":-2.54381,"entityId":1000868,"day":55,"placeName":"Winterbourne Abbas","type":3,"url":""},
{"sequence":869,"Latitude":50.73185,"Longitude":-2.75936,"entityId":1000869,"day":55,"placeName":"Bridport","type":3,"url":""},
{"sequence":870,"Latitude":50.73042,"Longitude":-2.81626,"entityId":1000870,"day":55,"placeName":"Chideock","type":3,"url":""},
{"sequence":871,"Latitude":50.72685,"Longitude":-2.93198,"entityId":1000871,"day":55,"placeName":"Lyme Regis","type":3,"url":""},
{"sequence":872,"Latitude":50.70119,"Longitude":-2.72441,"entityId":1000872,"day":55,"placeName":"Burton Bradstock","type":3,"url":""},
{"sequence":873,"Latitude":50.6675,"Longitude":-2.60104,"entityId":1000873,"day":55,"placeName":"Abbotsbury","type":3,"url":""},
{"sequence":874,"Latitude":50.66901,"Longitude":-2.56167,"entityId":1000874,"day":55,"placeName":"Portesham","type":3,"url":""},
{"sequence":875,"Latitude":50.62483,"Longitude":-2.50575,"entityId":1000875,"day":55,"placeName":"Chickerell","type":3,"url":""},
{"sequence":876,"Latitude":50.59516,"Longitude":-2.47383,"entityId":1000876,"day":55,"placeName":"Wyke Regis","type":3,"url":""},
{"sequence":877,"Latitude":50.56886,"Longitude":-2.45058,"entityId":1000877,"day":55,"placeName":"Osprey Quay, Portland","type":3,"url":""},
{"sequence":878,"Latitude":50.61903,"Longitude":-2.45656,"entityId":1000878,"day":55,"placeName":"Weymouth","type":1,"url":"weymouth-and-portland","followUpVisitDay":56},
{"sequence":879,"Latitude":50.51539,"Longitude":-2.45976,"entityId":1000879,"day":56,"placeName":"Portland Bill","type":3,"url":""},
{"sequence":880,"Latitude":50.53316,"Longitude":-2.44629,"entityId":1000880,"day":56,"placeName":"Southwell","type":3,"url":""},
{"sequence":881,"Latitude":50.54196,"Longitude":-2.44748,"entityId":1000881,"day":56,"placeName":"Weston","type":3,"url":""},
{"sequence":882,"Latitude":50.54383,"Longitude":-2.43155,"entityId":1000882,"day":56,"placeName":"Easton","type":3,"url":""},
{"sequence":883,"Latitude":50.55147,"Longitude":-2.43188,"entityId":1000883,"day":56,"placeName":"Portland","type":3,"url":""},
{"sequence":884,"Latitude":50.56163,"Longitude":-2.4458,"entityId":1000884,"day":56,"placeName":"Fortuneswell","type":3,"url":""},
{"sequence":885,"Latitude":50.61903,"Longitude":-2.45656,"entityId":1000885,"day":56,"placeName":"Weymouth","type":3,"url":""},
{"sequence":886,"Latitude":50.64901,"Longitude":-2.42011,"entityId":1000886,"day":56,"placeName":"Preston","type":3,"url":""},
{"sequence":887,"Latitude":50.64923,"Longitude":-2.39041,"entityId":1000887,"day":56,"placeName":"Osmington","type":3,"url":""},
{"sequence":888,"Latitude":50.66105,"Longitude":-2.27758,"entityId":1000888,"day":56,"placeName":"Winfrith Newburgh","type":3,"url":""},
{"sequence":889,"Latitude":50.67841,"Longitude":-2.22064,"entityId":1000889,"day":56,"placeName":"Wool","type":3,"url":""},
{"sequence":890,"Latitude":50.63605,"Longitude":-2.05405,"entityId":1000890,"day":56,"placeName":"Corfe Castle","type":3,"url":""},
{"sequence":891,"Latitude":50.60746,"Longitude":-1.96162,"entityId":1000891,"day":56,"placeName":"Swanage","type":3,"url":""},
{"sequence":892,"Latitude":50.67653,"Longitude":-2.10739,"entityId":1000892,"day":56,"placeName":"Stoborough","type":3,"url":""},
{"sequence":893,"Latitude":50.687,"Longitude":-2.10869,"entityId":1000893,"day":56,"placeName":"Wareham","type":3,"url":""},
{"sequence":894,"Latitude":50.70528,"Longitude":-2.10523,"entityId":1000894,"day":56,"placeName":"Sandford","type":3,"url":""},
{"sequence":895,"Latitude":50.7353,"Longitude":-2.06143,"entityId":1000895,"day":56,"placeName":"Lytchett Minster","type":3,"url":""},
{"sequence":896,"Latitude":50.7406,"Longitude":-2.02554,"entityId":1000896,"day":56,"placeName":"Upton","type":3,"url":""},
{"sequence":897,"Latitude":50.72048,"Longitude":-2.01031,"entityId":1000897,"day":56,"placeName":"Hamworthy","type":3,"url":""},
{"sequence":898,"Latitude":50.71917,"Longitude":-1.9817,"entityId":1000898,"day":56,"placeName":"Poole","type":3,"url":""},
{"sequence":899,"Latitude":50.7237,"Longitude":-1.95402,"entityId":1000899,"day":56,"placeName":"Ashley Cross","type":3,"url":""},
{"sequence":900,"Latitude":50.7321,"Longitude":-1.92344,"entityId":1000900,"day":56,"placeName":"Branksome","type":3,"url":""},
{"sequence":901,"Latitude":50.74502,"Longitude":-1.91887,"entityId":1000901,"day":56,"placeName":"Wallisdown","type":3,"url":""},
{"sequence":902,"Latitude":50.72016,"Longitude":-1.8747,"entityId":1000902,"day":56,"placeName":"Bournemouth","type":1,"url":"bournemouth","followUpVisitDay":57},
{"sequence":903,"Latitude":50.7243,"Longitude":-1.83908,"entityId":1000903,"day":57,"placeName":"Boscombe","type":3,"url":""},
{"sequence":904,"Latitude":50.73317,"Longitude":-1.77344,"entityId":1000904,"day":57,"placeName":"Christchurch","type":3,"url":""},
{"sequence":905,"Latitude":50.87401,"Longitude":-1.57847,"entityId":1000905,"day":57,"placeName":"Lyndhurst","type":3,"url":""},
{"sequence":906,"Latitude":50.82025,"Longitude":-1.5803,"entityId":1000906,"day":57,"placeName":"Brockenhurst","type":3,"url":""},
{"sequence":907,"Latitude":50.75829,"Longitude":-1.54165,"entityId":1000907,"day":57,"placeName":"Lymington","type":5,"url":""},
{"sequence":908,"Latitude":50.68086,"Longitude":-1.54156,"entityId":1000908,"day":57,"placeName":"Totland","type":5,"url":""},
{"sequence":909,"Latitude":50.70354,"Longitude":-1.4962,"entityId":1000909,"day":57,"placeName":"Yarmouth","type":3,"url":""},
{"sequence":910,"Latitude":50.69265,"Longitude":-1.3138,"entityId":1000910,"day":57,"placeName":"Carisbrooke","type":3,"url":""},
{"sequence":911,"Latitude":50.69911,"Longitude":-1.3035,"entityId":1000911,"day":57,"placeName":"Newport","type":3,"url":""},
{"sequence":912,"Latitude":50.75941,"Longitude":-1.28471,"entityId":1000912,"day":57,"placeName":"East Cowes","type":5,"url":""},
{"sequence":913,"Latitude":50.91147,"Longitude":-1.40049,"entityId":1000913,"day":57,"placeName":"Southampton","type":4,"url":"southampton","followUpVisitDay":58},
{"sequence":914,"Latitude":49.45861,"Longitude":-2.53667,"entityId":1000914,"day":58,"placeName":"St Peter Port, Guernsey","type":5,"url":""},
{"sequence":915,"Latitude":49.18376,"Longitude":-2.11138,"entityId":1000915,"day":58,"placeName":"St Helier, Jersey","type":5,"url":""},
{"sequence":916,"Latitude":50.85434,"Longitude":-1.18874,"entityId":1000916,"day":58,"placeName":"Fareham","type":5,"url":""},
{"sequence":917,"Latitude":50.8281,"Longitude":-1.17077,"entityId":1000917,"day":58,"placeName":"Bridgemary","type":3,"url":""},
{"sequence":918,"Latitude":50.797,"Longitude":-1.14177,"entityId":1000918,"day":58,"placeName":"Gosport","type":3,"url":""},
{"sequence":919,"Latitude":50.80652,"Longitude":-1.0744,"entityId":1000919,"day":58,"placeName":"Portsmouth","type":1,"url":"portsmouth","followUpVisitDay":59},
{"sequence":920,"Latitude":51.00494,"Longitude":-0.93851,"entityId":1000920,"day":59,"placeName":"Petersfield","type":3,"url":""},
{"sequence":921,"Latitude":51.00674,"Longitude":-0.85259,"entityId":1000921,"day":59,"placeName":"Rogate","type":3,"url":""},
{"sequence":922,"Latitude":50.98399,"Longitude":-0.74168,"entityId":1000922,"day":59,"placeName":"Midhurst","type":3,"url":""},
{"sequence":923,"Latitude":50.99718,"Longitude":-0.72201,"entityId":1000923,"day":59,"placeName":"Easebourne","type":3,"url":""},
{"sequence":924,"Latitude":50.98692,"Longitude":-0.62857,"entityId":1000924,"day":59,"placeName":"Tillington","type":3,"url":""},
{"sequence":925,"Latitude":50.98548,"Longitude":-0.61124,"entityId":1000925,"day":59,"placeName":"Petworth","type":3,"url":""},
{"sequence":926,"Latitude":50.94773,"Longitude":-0.63778,"entityId":1000926,"day":59,"placeName":"Duncton","type":3,"url":""},
{"sequence":927,"Latitude":50.83513,"Longitude":-0.77592,"entityId":1000927,"day":59,"placeName":"Chichester","type":3,"url":""},
{"sequence":928,"Latitude":50.80046,"Longitude":-0.68788,"entityId":1000928,"day":59,"placeName":"North Bersted","type":3,"url":""},
{"sequence":929,"Latitude":50.79654,"Longitude":-0.6747,"entityId":1000929,"day":59,"placeName":"South Bersted","type":3,"url":""},
{"sequence":930,"Latitude":50.78552,"Longitude":-0.67401,"entityId":1000930,"day":59,"placeName":"Bognor Regis","type":3,"url":""},
{"sequence":931,"Latitude":50.8325,"Longitude":-0.67368,"entityId":1000931,"day":59,"placeName":"Woodgate","type":3,"url":""},
{"sequence":932,"Latitude":50.83988,"Longitude":-0.67123,"entityId":1000932,"day":59,"placeName":"Westergate","type":3,"url":""},
{"sequence":933,"Latitude":50.85609,"Longitude":-0.55637,"entityId":1000933,"day":59,"placeName":"Arundel","type":3,"url":""},
{"sequence":934,"Latitude":50.81169,"Longitude":-0.37039,"entityId":1000934,"day":59,"placeName":"Worthing","type":3,"url":""},
{"sequence":935,"Latitude":50.82793,"Longitude":-0.31883,"entityId":1000935,"day":59,"placeName":"Lancing","type":3,"url":""},
{"sequence":936,"Latitude":50.845,"Longitude":-0.1857,"entityId":1000936,"day":59,"placeName":"West Blatchington","type":3,"url":""},
{"sequence":937,"Latitude":50.83278,"Longitude":-0.13578,"entityId":1000937,"day":59,"placeName":"Brighton & Hove","type":1,"url":"brighton-hove","followUpVisitDay":60},
{"sequence":938,"Latitude":51.11199,"Longitude":-0.18,"entityId":1000938,"day":60,"placeName":"Crawley","type":3,"url":""},
{"sequence":939,"Latitude":51.13864,"Longitude":-0.12074,"entityId":1000939,"day":60,"placeName":"Copthorne","type":3,"url":""},
{"sequence":940,"Latitude":51.13828,"Longitude":-0.04384,"entityId":1000940,"day":60,"placeName":"Felbridge","type":3,"url":""},
{"sequence":941,"Latitude":51.13051,"Longitude":-0.00978,"entityId":1000941,"day":60,"placeName":"East Grinstead","type":3,"url":""},
{"sequence":942,"Latitude":51.135,"Longitude":0.26565,"entityId":1000942,"day":60,"placeName":"Royal Tunbridge Wells","type":3,"url":""},
{"sequence":943,"Latitude":51.05644,"Longitude":0.1619,"entityId":1000943,"day":60,"placeName":"Crowborough","type":3,"url":""},
{"sequence":944,"Latitude":50.87541,"Longitude":0.01099,"entityId":1000944,"day":60,"placeName":"Lewes","type":3,"url":""},
{"sequence":945,"Latitude":50.78215,"Longitude":0.26116,"entityId":1000945,"day":60,"placeName":"Eastbourne","type":3,"url":""},
{"sequence":946,"Latitude":50.81641,"Longitude":0.348,"entityId":1000946,"day":60,"placeName":"Pevensey Bay","type":3,"url":""},
{"sequence":947,"Latitude":50.81851,"Longitude":0.33655,"entityId":1000947,"day":60,"placeName":"Pevensey","type":3,"url":""},
{"sequence":948,"Latitude":50.8421,"Longitude":0.45935,"entityId":1000948,"day":60,"placeName":"Bexhill-on-Sea","type":3,"url":""},
{"sequence":949,"Latitude":50.85861,"Longitude":0.55023,"entityId":1000949,"day":60,"placeName":"St Leonards-on-Sea","type":3,"url":""},
{"sequence":950,"Latitude":50.86046,"Longitude":0.58017,"entityId":1000950,"day":60,"placeName":"Hastings","type":1,"url":"hastings","followUpVisitDay":61},
{"sequence":951,"Latitude":50.95166,"Longitude":0.72891,"entityId":1000951,"day":61,"placeName":"Rye","type":3,"url":""},
{"sequence":952,"Latitude":51.06536,"Longitude":0.85777,"entityId":1000952,"day":61,"placeName":"Hamstreet","type":3,"url":""},
{"sequence":953,"Latitude":51.1476,"Longitude":0.86872,"entityId":1000953,"day":61,"placeName":"Ashford","type":3,"url":""},
{"sequence":954,"Latitude":51.06907,"Longitude":1.08648,"entityId":1000954,"day":61,"placeName":"Hythe","type":3,"url":""},
{"sequence":955,"Latitude":51.07541,"Longitude":1.14756,"entityId":1000955,"day":61,"placeName":"Sandgate","type":3,"url":""},
{"sequence":956,"Latitude":51.08688,"Longitude":1.16382,"entityId":1000956,"day":61,"placeName":"Folkestone","type":3,"url":""},
{"sequence":957,"Latitude":51.13435,"Longitude":1.30312,"entityId":1000957,"day":61,"placeName":"Dover","type":1,"url":"dover"},
{"sequence":958,"Latitude":51.21867,"Longitude":1.40151,"entityId":1000958,"day":62,"placeName":"Deal","type":3,"url":""},
{"sequence":959,"Latitude":51.22403,"Longitude":1.37328,"entityId":1000959,"day":62,"placeName":"Sholden","type":3,"url":""},
{"sequence":960,"Latitude":51.27651,"Longitude":1.34371,"entityId":1000960,"day":62,"placeName":"Sandwich","type":3,"url":""},
{"sequence":961,"Latitude":51.28675,"Longitude":1.34725,"entityId":1000961,"day":62,"placeName":"Great Stonar","type":3,"url":""},
{"sequence":962,"Latitude":51.32805,"Longitude":1.36547,"entityId":1000962,"day":62,"placeName":"Cliffsend","type":3,"url":""},
{"sequence":963,"Latitude":51.33937,"Longitude":1.39417,"entityId":1000963,"day":62,"placeName":"St Lawrence","type":3,"url":""},
{"sequence":964,"Latitude":51.33448,"Longitude":1.42272,"entityId":1000964,"day":62,"placeName":"Ramsgate","type":3,"url":""},
{"sequence":965,"Latitude":51.35723,"Longitude":1.43794,"entityId":1000965,"day":62,"placeName":"Broadstairs","type":3,"url":""},
{"sequence":966,"Latitude":51.36546,"Longitude":1.42484,"entityId":1000966,"day":62,"placeName":"St Peters","type":3,"url":""},
{"sequence":967,"Latitude":51.39001,"Longitude":1.3987,"entityId":1000967,"day":62,"placeName":"Cliftonville","type":3,"url":""},
{"sequence":968,"Latitude":51.3864,"Longitude":1.38368,"entityId":1000968,"day":62,"placeName":"Margate","type":3,"url":""},
{"sequence":969,"Latitude":51.38059,"Longitude":1.33518,"entityId":1000969,"day":62,"placeName":"Westgate-on-Sea","type":3,"url":""},
{"sequence":970,"Latitude":51.37556,"Longitude":1.30627,"entityId":1000970,"day":62,"placeName":"Birchington","type":3,"url":""},
{"sequence":971,"Latitude":51.32547,"Longitude":1.19407,"entityId":1000971,"day":62,"placeName":"Upstreet","type":3,"url":""},
{"sequence":972,"Latitude":51.30189,"Longitude":1.11975,"entityId":1000972,"day":62,"placeName":"Sturry","type":3,"url":""},
{"sequence":973,"Latitude":51.27814,"Longitude":1.07713,"entityId":1000973,"day":62,"placeName":"Canterbury","type":3,"url":""},
{"sequence":974,"Latitude":51.26914,"Longitude":1.05681,"entityId":1000974,"day":62,"placeName":"Thanington","type":3,"url":""},
{"sequence":975,"Latitude":51.31567,"Longitude":0.89066,"entityId":1000975,"day":62,"placeName":"Faversham","type":3,"url":""},
{"sequence":976,"Latitude":51.21919,"Longitude":0.87308,"entityId":1000976,"day":62,"placeName":"Challock","type":3,"url":""},
{"sequence":977,"Latitude":51.24208,"Longitude":0.67814,"entityId":1000977,"day":62,"placeName":"Harrietsham","type":3,"url":""},
{"sequence":978,"Latitude":51.27133,"Longitude":0.52883,"entityId":1000978,"day":62,"placeName":"Maidstone","type":1,"url":"maidstone","followUpVisitDay":63},
{"sequence":979,"Latitude":51.38048,"Longitude":0.52928,"entityId":1000979,"day":63,"placeName":"Chatham","type":3,"url":""},
{"sequence":980,"Latitude":51.38331,"Longitude":0.54732,"entityId":1000980,"day":63,"placeName":"Gillingham","type":3,"url":""},
{"sequence":981,"Latitude":51.38906,"Longitude":0.50493,"entityId":1000981,"day":63,"placeName":"Rochester","type":3,"url":""},
{"sequence":982,"Latitude":51.41585,"Longitude":0.46233,"entityId":1000982,"day":63,"placeName":"Higham","type":3,"url":""},
{"sequence":983,"Latitude":51.4423,"Longitude":0.36962,"entityId":1000983,"day":63,"placeName":"Gravesend","type":3,"url":""},
{"sequence":984,"Latitude":51.29244,"Longitude":0.30378,"entityId":1000984,"day":63,"placeName":"Borough Green","type":3,"url":""},
{"sequence":985,"Latitude":51.28816,"Longitude":0.21739,"entityId":1000985,"day":63,"placeName":"Seal","type":3,"url":""},
{"sequence":986,"Latitude":51.27511,"Longitude":0.18825,"entityId":1000986,"day":63,"placeName":"Sevenoaks","type":3,"url":""},
{"sequence":987,"Latitude":51.2872,"Longitude":0.17055,"entityId":1000987,"day":63,"placeName":"Riverhead","type":3,"url":""},
{"sequence":988,"Latitude":51.24739,"Longitude":-0.06376,"entityId":1000988,"day":63,"placeName":"Godstone","type":3,"url":""},
{"sequence":989,"Latitude":51.23917,"Longitude":-0.09456,"entityId":1000989,"day":63,"placeName":"Bletchingley","type":3,"url":""},
{"sequence":990,"Latitude":51.23996,"Longitude":-0.17161,"entityId":1000990,"day":63,"placeName":"Redhill","type":3,"url":""},
{"sequence":991,"Latitude":51.2344,"Longitude":-0.19671,"entityId":1000991,"day":63,"placeName":"Reigate","type":3,"url":""},
{"sequence":992,"Latitude":51.23246,"Longitude":-0.32877,"entityId":1000992,"day":63,"placeName":"Dorking","type":3,"url":""},
{"sequence":993,"Latitude":51.22484,"Longitude":-0.36432,"entityId":1000993,"day":63,"placeName":"Westcott","type":3,"url":""},
{"sequence":994,"Latitude":51.218,"Longitude":-0.46332,"entityId":1000994,"day":63,"placeName":"Shere","type":3,"url":""},
{"sequence":995,"Latitude":51.1842,"Longitude":-0.61782,"entityId":1000995,"day":63,"placeName":"Godalming","type":3,"url":""},
{"sequence":996,"Latitude":51.23711,"Longitude":-0.57597,"entityId":1000996,"day":63,"placeName":"Guildford","type":1,"url":"guildford"},
{"sequence":997,"Latitude":51.46941,"Longitude":0.04843,"entityId":1000997,"day":64,"placeName":"Greenwich","type":3,"url":""},
{"sequence":998,"Latitude":51.52987,"Longitude":0.03946,"entityId":1000998,"day":64,"placeName":"Newham","type":3,"url":""},
{"sequence":999,"Latitude":51.51481,"Longitude":-0.03485,"entityId":1000999,"day":64,"placeName":"Tower Hamlets","type":3,"url":""},
{"sequence":1000,"Latitude":51.54862,"Longitude":-0.06074,"entityId":1001000,"day":64,"placeName":"Hackney","type":3,"url":""},
{"sequence":1001,"Latitude":51.5984,"Longitude":-0.01869,"entityId":1001001,"day":64,"placeName":"Waltham Forest","type":1,"url":"london-waltham-forest"},
{"sequence":1002,"Latitude":51.58577,"Longitude":0.07797,"entityId":1001002,"day":65,"placeName":"Redbridge","type":3,"url":""},
{"sequence":1003,"Latitude":51.55455,"Longitude":0.12877,"entityId":1001003,"day":65,"placeName":"Barking & Dagenham","type":3,"url":""},
{"sequence":1004,"Latitude":51.55744,"Longitude":0.23495,"entityId":1001004,"day":65,"placeName":"Havering","type":3,"url":""},
{"sequence":1005,"Latitude":51.45953,"Longitude":0.10734,"entityId":1001005,"day":65,"placeName":"Bexley","type":1,"url":"london-bexley"},
{"sequence":1006,"Latitude":51.45351,"Longitude":-0.01689,"entityId":1001006,"day":66,"placeName":"Lewisham","type":3,"url":""},
{"sequence":1007,"Latitude":51.36696,"Longitude":0.03894,"entityId":1001007,"day":66,"placeName":"Bromley","type":3,"url":""},
{"sequence":1008,"Latitude":51.35435,"Longitude":-0.07815,"entityId":1001008,"day":66,"placeName":"Croydon","type":3,"url":""},
{"sequence":1009,"Latitude":51.35772,"Longitude":-0.18124,"entityId":1001009,"day":66,"placeName":"Sutton","type":3,"url":""},
{"sequence":1010,"Latitude":51.41058,"Longitude":-0.18935,"entityId":1001010,"day":66,"placeName":"Merton","type":3,"url":""},
{"sequence":1011,"Latitude":51.46458,"Longitude":-0.19476,"entityId":1001011,"day":66,"placeName":"Wandsworth","type":1,"url":"london-wandsworth"},
{"sequence":1012,"Latitude":51.3817,"Longitude":-0.28417,"entityId":1001012,"day":67,"placeName":"Kingston","type":3,"url":""},
{"sequence":1013,"Latitude":51.44097,"Longitude":-0.30763,"entityId":1001013,"day":67,"placeName":"Richmond","type":3,"url":""},
{"sequence":1014,"Latitude":51.46207,"Longitude":-0.35276,"entityId":1001014,"day":67,"placeName":"Hounslow","type":3,"url":""},
{"sequence":1015,"Latitude":51.54215,"Longitude":-0.44165,"entityId":1001015,"day":67,"placeName":"Hillingdon","type":3,"url":""},
{"sequence":1016,"Latitude":51.51123,"Longitude":-0.30821,"entityId":1001016,"day":67,"placeName":"Ealing","type":1,"url":"london-ealing"},
{"sequence":1017,"Latitude":51.59666,"Longitude":-0.33599,"entityId":1001017,"day":68,"placeName":"Harrow","type":3,"url":""},
{"sequence":1018,"Latitude":51.56424,"Longitude":-0.26285,"entityId":1001018,"day":68,"placeName":"Brent","type":3,"url":""},
{"sequence":1019,"Latitude":51.61284,"Longitude":-0.21818,"entityId":1001019,"day":68,"placeName":"Barnet","type":3,"url":""},
{"sequence":1020,"Latitude":51.64917,"Longitude":-0.09795,"entityId":1001020,"day":68,"placeName":"Enfield","type":3,"url":""},
{"sequence":1021,"Latitude":51.58772,"Longitude":-0.10646,"entityId":1001021,"day":68,"placeName":"Haringey","type":1,"url":"london-haringey"},
{"sequence":1022,"Latitude":51.54299,"Longitude":-0.15915,"entityId":1001022,"day":69,"placeName":"Camden","type":3,"url":""},
{"sequence":1023,"Latitude":51.54701,"Longitude":-0.10989,"entityId":1001023,"day":69,"placeName":"Islington","type":3,"url":""},
{"sequence":1024,"Latitude":51.51514,"Longitude":-0.09325,"entityId":1001024,"day":69,"placeName":"City","type":3,"url":""},
{"sequence":1025,"Latitude":51.46487,"Longitude":-0.07189,"entityId":1001025,"day":69,"placeName":"Southwark","type":3,"url":""},
{"sequence":1026,"Latitude":51.46031,"Longitude":-0.11406,"entityId":1001026,"day":69,"placeName":"Lambeth","type":3,"url":""},
{"sequence":1027,"Latitude":51.50355,"Longitude":-0.18942,"entityId":1001027,"day":69,"placeName":"Kensington & Chelsea","type":3,"url":""},
{"sequence":1028,"Latitude":51.49833,"Longitude":-0.21605,"entityId":1001028,"day":69,"placeName":"Hammersmith & Fulham","type":3,"url":""},
{"sequence":1029,"Latitude":51.49962,"Longitude":-0.13575,"entityId":1001029,"day":69,"placeName":"Westminster","type":1,"url":"london-westminster"},
{"sequence":0,"Latitude":51.53866,"Longitude":-0.01666,"entityId":1001030,"day":70,"placeName":"Olympic Stadium","type":1,"url":"olympic-stadium"},
{"sequence":0,"Latitude":54.18699,"Longitude":-4.56791,"entityId":2000001,"day":15,"placeName":"Isle of Man","type":2,"url":"isle-of-man"},
{"sequence":0,"Latitude":58.98394,"Longitude":-2.96874,"entityId":2000002,"day":23,"placeName":"Orkney Islands","type":2,"url":"orkney"},
{"sequence":0,"Latitude":60.15595,"Longitude":-1.15847,"entityId":2000003,"day":23,"placeName":"Shetland Islands","type":2,"url":"shetland"},
{"sequence":0,"Latitude":58.20886,"Longitude":-6.4073,"entityId":2000004,"day":24,"placeName":"Isle of Lewis","type":2,"url":"isle-of-lewis"},
{"sequence":0,"Latitude":49.45995,"Longitude":-2.54474,"entityId":2000005,"day":58,"placeName":"Guernsey","type":2,"url":"guernsey"},
{"sequence":0,"Latitude":49.18544,"Longitude":-2.10778,"entityId":2000006,"day":58,"placeName":"Jersey","type":2,"url":"jersey"}]}